{"type":"FeatureCollection","features":[{"type":"Feature","id":1,"geometry":null,"properties":{"OBJECTID":1,"Shape":null,"Shape_Length":null,"Shape_Area":null,"ID_CENARIO":null,"DESIGNACAO":null,"TIPO":null,"HORIZONTE":null,"PROBABILIDADE":null,"CONFIANCA":null,"AREA_HA":null,"VELOCIDADE":null,"DIRECAO":null,"INTENSIDADE":null,"METEO_REF":null,"MODELO":null,"DATA_INICIO":null,"VALIDO_ATE":null,"RESPONSAVEL":null,"FONTE":null,"DATA_HORA":null,"OBSERVACOES":null,"ID_OCORR":null,"DISTANCIA_M":null,"LARGURA_M":null}}]}