{
  "type": "FeatureCollection",
  "features": [
    {
      "type": "Feature",
      "properties": {
        "id_municipio": "1701",
        "nome_municipio": "ALIJÓ",
        "distrito": "VILA REAL",
        "densidade_empresas": 67,
        "taxa_nascimento": 9.9,
        "poder_compra": 102,
        "total_empresas": 3585,
        "populacao": 53513
      },
      "geometry": {
        "type": "Polygon",
        "coordinates": [
          [
            [
              -7.583,
              41.3997
            ],
            [
              -7.5816,
              41.3998
            ],
            [
              -7.5711,
              41.4018
            ],
            [
              -7.5699,
              41.4013
            ],
            [
              -7.566,
              41.3985
            ],
            [
              -7.563,
              41.3968
            ],
            [
              -7.5592,
              41.397
            ],
            [
              -7.5545,
              41.3964
            ],
            [
              -7.5503,
              41.3965
            ],
            [
              -7.5465,
              41.3969
            ],
            [
              -7.5379,
              41.3985
            ],
            [
              -7.5257,
              41.4004
            ],
            [
              -7.5221,
              41.4015
            ],
            [
              -7.5205,
              41.4005
            ],
            [
              -7.5184,
              41.3967
            ],
            [
              -7.5182,
              41.3958
            ],
            [
              -7.5163,
              41.3935
            ],
            [
              -7.5158,
              41.3921
            ],
            [
              -7.5156,
              41.3901
            ],
            [
              -7.5145,
              41.3886
            ],
            [
              -7.5138,
              41.3884
            ],
            [
              -7.513,
              41.3885
            ],
            [
              -7.5121,
              41.388
            ],
            [
              -7.511,
              41.3867
            ],
            [
              -7.5111,
              41.3859
            ],
            [
              -7.5107,
              41.3857
            ],
            [
              -7.5087,
              41.386
            ],
            [
              -7.5062,
              41.3857
            ],
            [
              -7.5058,
              41.3855
            ],
            [
              -7.5049,
              41.3845
            ],
            [
              -7.5034,
              41.3843
            ],
            [
              -7.4968,
              41.386
            ],
            [
              -7.4952,
              41.3863
            ],
            [
              -7.4941,
              41.3863
            ],
            [
              -7.4925,
              41.3861
            ],
            [
              -7.4902,
              41.3854
            ],
            [
              -7.4869,
              41.384
            ],
            [
              -7.4855,
              41.3841
            ],
            [
              -7.4825,
              41.3834
            ],
            [
              -7.4796,
              41.3833
            ],
            [
              -7.4756,
              41.3838
            ],
            [
              -7.4748,
              41.3848
            ],
            [
              -7.4734,
              41.3851
            ],
            [
              -7.4714,
              41.3848
            ],
            [
              -7.4699,
              41.385
            ],
            [
              -7.4683,
              41.3861
            ],
            [
              -7.4674,
              41.3857
            ],
            [
              -7.4659,
              41.3857
            ],
            [
              -7.4656,
              41.386
            ],
            [
              -7.4655,
              41.3864
            ],
            [
              -7.4647,
              41.387
            ],
            [
              -7.4631,
              41.3866
            ],
            [
              -7.4614,
              41.3878
            ],
            [
              -7.461,
              41.3879
            ],
            [
              -7.4605,
              41.3878
            ],
            [
              -7.4599,
              41.3883
            ],
            [
              -7.4581,
              41.3887
            ],
            [
              -7.4576,
              41.3887
            ],
            [
              -7.4574,
              41.3881
            ],
            [
              -7.457,
              41.388
            ],
            [
              -7.4558,
              41.3888
            ],
            [
              -7.454,
              41.3895
            ],
            [
              -7.4538,
              41.3894
            ],
            [
              -7.4535,
              41.3888
            ],
            [
              -7.4519,
              41.3884
            ],
            [
              -7.4509,
              41.3892
            ],
            [
              -7.4499,
              41.3896
            ],
            [
              -7.4492,
              41.389
            ],
            [
              -7.449,
              41.3883
            ],
            [
              -7.4484,
              41.3877
            ],
            [
              -7.4466,
              41.3868
            ],
            [
              -7.4458,
              41.3866
            ],
            [
              -7.4434,
              41.3823
            ],
            [
              -7.4387,
              41.3771
            ],
            [
              -7.4361,
              41.3719
            ],
            [
              -7.4344,
              41.3716
            ],
            [
              -7.4278,
              41.3715
            ],
            [
              -7.4164,
              41.3715
            ],
            [
              -7.4115,
              41.3718
            ],
            [
              -7.4103,
              41.3708
            ],
            [
              -7.4098,
              41.3698
            ],
            [
              -7.41,
              41.3689
            ],
            [
              -7.4112,
              41.3668
            ],
            [
              -7.4116,
              41.3654
            ],
            [
              -7.4115,
              41.3644
            ],
            [
              -7.4101,
              41.3623
            ],
            [
              -7.4088,
              41.3611
            ],
            [
              -7.4054,
              41.3594
            ],
            [
              -7.4044,
              41.3585
            ],
            [
              -7.4032,
              41.3583
            ],
            [
              -7.4012,
              41.3592
            ],
            [
              -7.3998,
              41.3594
            ],
            [
              -7.3987,
              41.3589
            ],
            [
              -7.3967,
              41.3575
            ],
            [
              -7.3959,
              41.3564
            ],
            [
              -7.3956,
              41.3551
            ],
            [
              -7.3955,
              41.3533
            ],
            [
              -7.3945,
              41.3506
            ],
            [
              -7.3906,
              41.3482
            ],
            [
              -7.3885,
              41.3453
            ],
            [
              -7.3881,
              41.3441
            ],
            [
              -7.3881,
              41.3424
            ],
            [
              -7.3875,
              41.3416
            ],
            [
              -7.3872,
              41.3407
            ],
            [
              -7.3872,
              41.3396
            ],
            [
              -7.3876,
              41.3379
            ],
            [
              -7.3885,
              41.3371
            ],
            [
              -7.3912,
              41.3357
            ],
            [
              -7.3916,
              41.3352
            ],
            [
              -7.3917,
              41.3341
            ],
            [
              -7.3909,
              41.3323
            ],
            [
              -7.39,
              41.3318
            ],
            [
              -7.3888,
              41.3305
            ],
            [
              -7.3886,
              41.3302
            ],
            [
              -7.3886,
              41.3295
            ],
            [
              -7.3872,
              41.3278
            ],
            [
              -7.3863,
              41.3275
            ],
            [
              -7.3849,
              41.3276
            ],
            [
              -7.3832,
              41.3285
            ],
            [
              -7.3824,
              41.3292
            ],
            [
              -7.3816,
              41.3294
            ],
            [
              -7.3802,
              41.3296
            ],
            [
              -7.3771,
              41.3294
            ],
            [
              -7.3757,
              41.3296
            ],
            [
              -7.3737,
              41.3302
            ],
            [
              -7.3726,
              41.3303
            ],
            [
              -7.3701,
              41.3289
            ],
            [
              -7.3693,
              41.328
            ],
            [
              -7.3689,
              41.3277
            ],
            [
              -7.3677,
              41.3275
            ],
            [
              -7.3654,
              41.3275
            ],
            [
              -7.3644,
              41.3272
            ],
            [
              -7.3641,
              41.3268
            ],
            [
              -7.3638,
              41.3256
            ],
            [
              -7.3625,
              41.324
            ],
            [
              -7.3634,
              41.3232
            ],
            [
              -7.3641,
              41.3222
            ],
            [
              -7.3663,
              41.3203
            ],
            [
              -7.368,
              41.3192
            ],
            [
              -7.37,
              41.3174
            ],
            [
              -7.3727,
              41.3163
            ],
            [
              -7.3742,
              41.3155
            ],
            [
              -7.3754,
              41.3145
            ],
            [
              -7.3757,
              41.3136
            ],
            [
              -7.3752,
              41.3125
            ],
            [
              -7.3749,
              41.3122
            ],
            [
              -7.3726,
              41.3107
            ],
            [
              -7.3677,
              41.3093
            ],
            [
              -7.3655,
              41.3079
            ],
            [
              -7.3644,
              41.3064
            ],
            [
              -7.3624,
              41.3047
            ],
            [
              -7.3622,
              41.3043
            ],
            [
              -7.3622,
              41.3038
            ],
            [
              -7.3644,
              41.3034
            ],
            [
              -7.3653,
              41.3028
            ],
            [
              -7.3681,
              41.3017
            ],
            [
              -7.3699,
              41.3006
            ],
            [
              -7.3704,
              41.3
            ],
            [
              -7.3706,
              41.2994
            ],
            [
              -7.3717,
              41.2944
            ],
            [
              -7.3727,
              41.2932
            ],
            [
              -7.3746,
              41.2925
            ],
            [
              -7.3769,
              41.2919
            ],
            [
              -7.3794,
              41.2906
            ],
            [
              -7.3826,
              41.2898
            ],
            [
              -7.3854,
              41.2884
            ],
            [
              -7.3869,
              41.288
            ],
            [
              -7.389,
              41.2879
            ],
            [
              -7.3901,
              41.2877
            ],
            [
              -7.3904,
              41.2874
            ],
            [
              -7.3912,
              41.2862
            ],
            [
              -7.3919,
              41.2845
            ],
            [
              -7.3934,
              41.279
            ],
            [
              -7.3933,
              41.2785
            ],
            [
              -7.3926,
              41.2778
            ],
            [
              -7.3897,
              41.2765
            ],
            [
              -7.3885,
              41.2756
            ],
            [
              -7.3871,
              41.2739
            ],
            [
              -7.387,
              41.273
            ],
            [
              -7.3876,
              41.2708
            ],
            [
              -7.3887,
              41.2688
            ],
            [
              -7.3888,
              41.2668
            ],
            [
              -7.3893,
              41.265
            ],
            [
              -7.3898,
              41.2645
            ],
            [
              -7.3913,
              41.2637
            ],
            [
              -7.3947,
              41.2626
            ],
            [
              -7.395,
              41.2624
            ],
            [
              -7.3952,
              41.262
            ],
            [
              -7.3953,
              41.2614
            ],
            [
              -7.3951,
              41.2607
            ],
            [
              -7.3942,
              41.2586
            ],
            [
              -7.3921,
              41.2555
            ],
            [
              -7.3924,
              41.2548
            ],
            [
              -7.3953,
              41.252
            ],
            [
              -7.3954,
              41.2513
            ],
            [
              -7.395,
              41.251
            ],
            [
              -7.3891,
              41.2488
            ],
            [
              -7.3884,
              41.2476
            ],
            [
              -7.3873,
              41.2451
            ],
            [
              -7.3874,
              41.2445
            ],
            [
              -7.3877,
              41.2441
            ],
            [
              -7.3886,
              41.243
            ],
            [
              -7.3891,
              41.2427
            ],
            [
              -7.3898,
              41.2425
            ],
            [
              -7.3978,
              41.2434
            ],
            [
              -7.4013,
              41.2445
            ],
            [
              -7.4024,
              41.2446
            ],
            [
              -7.4038,
              41.2444
            ],
            [
              -7.4064,
              41.2445
            ],
            [
              -7.4078,
              41.2448
            ],
            [
              -7.4097,
              41.2457
            ],
            [
              -7.4108,
              41.2465
            ],
            [
              -7.412,
              41.2479
            ],
            [
              -7.4125,
              41.2483
            ],
            [
              -7.4135,
              41.2485
            ],
            [
              -7.4142,
              41.2484
            ],
            [
              -7.4151,
              41.2477
            ],
            [
              -7.4166,
              41.246
            ],
            [
              -7.4186,
              41.2433
            ],
            [
              -7.4192,
              41.2427
            ],
            [
              -7.4222,
              41.2408
            ],
            [
              -7.4229,
              41.24
            ],
            [
              -7.4231,
              41.2393
            ],
            [
              -7.4231,
              41.2391
            ],
            [
              -7.4221,
              41.2384
            ],
            [
              -7.4212,
              41.2374
            ],
            [
              -7.4212,
              41.2367
            ],
            [
              -7.4219,
              41.2358
            ],
            [
              -7.4231,
              41.2337
            ],
            [
              -7.4229,
              41.2322
            ],
            [
              -7.422,
              41.2303
            ],
            [
              -7.4206,
              41.2283
            ],
            [
              -7.4199,
              41.2271
            ],
            [
              -7.4201,
              41.2261
            ],
            [
              -7.4211,
              41.2241
            ],
            [
              -7.4212,
              41.2208
            ],
            [
              -7.4226,
              41.2188
            ],
            [
              -7.4254,
              41.2157
            ],
            [
              -7.426,
              41.2152
            ],
            [
              -7.4289,
              41.2138
            ],
            [
              -7.4294,
              41.2134
            ],
            [
              -7.4302,
              41.2123
            ],
            [
              -7.4319,
              41.2108
            ],
            [
              -7.4368,
              41.2125
            ],
            [
              -7.4423,
              41.214
            ],
            [
              -7.446,
              41.2147
            ],
            [
              -7.4512,
              41.2144
            ],
            [
              -7.4533,
              41.214
            ],
            [
              -7.4547,
              41.2134
            ],
            [
              -7.4562,
              41.2125
            ],
            [
              -7.4577,
              41.2113
            ],
            [
              -7.4592,
              41.2094
            ],
            [
              -7.4619,
              41.2053
            ],
            [
              -7.4632,
              41.2031
            ],
            [
              -7.4642,
              41.2018
            ],
            [
              -7.4665,
              41.2006
            ],
            [
              -7.4691,
              41.1995
            ],
            [
              -7.4705,
              41.1992
            ],
            [
              -7.4784,
              41.1984
            ],
            [
              -7.4804,
              41.1983
            ],
            [
              -7.4899,
              41.1991
            ],
            [
              -7.4927,
              41.1996
            ],
            [
              -7.4977,
              41.2
            ],
            [
              -7.4999,
              41.2
            ],
            [
              -7.5029,
              41.1995
            ],
            [
              -7.5082,
              41.1972
            ],
            [
              -7.5092,
              41.1966
            ],
            [
              -7.5103,
              41.1952
            ],
            [
              -7.5112,
              41.1942
            ],
            [
              -7.5132,
              41.1927
            ],
            [
              -7.5143,
              41.1914
            ],
            [
              -7.5155,
              41.1893
            ],
            [
              -7.5171,
              41.1854
            ],
            [
              -7.519,
              41.1828
            ],
            [
              -7.52,
              41.1818
            ],
            [
              -7.5218,
              41.1804
            ],
            [
              -7.5223,
              41.18
            ],
            [
              -7.5236,
              41.1797
            ],
            [
              -7.5256,
              41.1798
            ],
            [
              -7.5286,
              41.1808
            ],
            [
              -7.533,
              41.1834
            ],
            [
              -7.5367,
              41.1848
            ],
            [
              -7.5405,
              41.1871
            ],
            [
              -7.5431,
              41.1883
            ],
            [
              -7.5451,
              41.1887
            ],
            [
              -7.5473,
              41.1886
            ],
            [
              -7.5486,
              41.188
            ],
            [
              -7.5487,
              41.1926
            ],
            [
              -7.5485,
              41.1942
            ],
            [
              -7.548,
              41.1952
            ],
            [
              -7.547,
              41.1961
            ],
            [
              -7.5456,
              41.1967
            ],
            [
              -7.5444,
              41.1974
            ],
            [
              -7.5441,
              41.198
            ],
            [
              -7.5438,
              41.1997
            ],
            [
              -7.5415,
              41.2022
            ],
            [
              -7.5405,
              41.2043
            ],
            [
              -7.5407,
              41.2047
            ],
            [
              -7.5426,
              41.2054
            ],
            [
              -7.5431,
              41.2059
            ],
            [
              -7.5436,
              41.2069
            ],
            [
              -7.5434,
              41.2078
            ],
            [
              -7.5435,
              41.2085
            ],
            [
              -7.5439,
              41.2089
            ],
            [
              -7.5454,
              41.2092
            ],
            [
              -7.5466,
              41.2097
            ],
            [
              -7.5477,
              41.2096
            ],
            [
              -7.5483,
              41.2098
            ],
            [
              -7.5485,
              41.2105
            ],
            [
              -7.5482,
              41.2127
            ],
            [
              -7.5476,
              41.2131
            ],
            [
              -7.547,
              41.2131
            ],
            [
              -7.5446,
              41.2128
            ],
            [
              -7.544,
              41.2132
            ],
            [
              -7.5439,
              41.2135
            ],
            [
              -7.5439,
              41.2138
            ],
            [
              -7.5462,
              41.2147
            ],
            [
              -7.5469,
              41.2154
            ],
            [
              -7.547,
              41.2157
            ],
            [
              -7.5462,
              41.2161
            ],
            [
              -7.5444,
              41.2165
            ],
            [
              -7.5442,
              41.2167
            ],
            [
              -7.5441,
              41.2182
            ],
            [
              -7.5438,
              41.2191
            ],
            [
              -7.5434,
              41.2198
            ],
            [
              -7.5428,
              41.2202
            ],
            [
              -7.542,
              41.2203
            ],
            [
              -7.5406,
              41.2194
            ],
            [
              -7.5401,
              41.2192
            ],
            [
              -7.5397,
              41.2194
            ],
            [
              -7.5394,
              41.22
            ],
            [
              -7.5395,
              41.2219
            ],
            [
              -7.5393,
              41.2224
            ],
            [
              -7.5377,
              41.2234
            ],
            [
              -7.537,
              41.224
            ],
            [
              -7.5369,
              41.2252
            ],
            [
              -7.5388,
              41.2261
            ],
            [
              -7.5396,
              41.2279
            ],
            [
              -7.5408,
              41.2292
            ],
            [
              -7.5406,
              41.2297
            ],
            [
              -7.5395,
              41.2307
            ],
            [
              -7.5386,
              41.2311
            ],
            [
              -7.5384,
              41.231
            ],
            [
              -7.5384,
              41.2299
            ],
            [
              -7.5382,
              41.2294
            ],
            [
              -7.5378,
              41.2293
            ],
            [
              -7.5372,
              41.2294
            ],
            [
              -7.5341,
              41.2318
            ],
            [
              -7.5319,
              41.2329
            ],
            [
              -7.5315,
              41.2333
            ],
            [
              -7.5316,
              41.2337
            ],
            [
              -7.5324,
              41.2346
            ],
            [
              -7.5338,
              41.2345
            ],
            [
              -7.536,
              41.2356
            ],
            [
              -7.5391,
              41.2359
            ],
            [
              -7.5402,
              41.2364
            ],
            [
              -7.5409,
              41.2369
            ],
            [
              -7.5409,
              41.2378
            ],
            [
              -7.5403,
              41.2381
            ],
            [
              -7.5395,
              41.2379
            ],
            [
              -7.5386,
              41.2368
            ],
            [
              -7.5379,
              41.237
            ],
            [
              -7.5379,
              41.2377
            ],
            [
              -7.5382,
              41.2387
            ],
            [
              -7.5384,
              41.2391
            ],
            [
              -7.5395,
              41.24
            ],
            [
              -7.5396,
              41.2403
            ],
            [
              -7.5372,
              41.2424
            ],
            [
              -7.5369,
              41.2428
            ],
            [
              -7.537,
              41.2434
            ],
            [
              -7.5377,
              41.2441
            ],
            [
              -7.5379,
              41.2447
            ],
            [
              -7.5367,
              41.2467
            ],
            [
              -7.5368,
              41.2472
            ],
            [
              -7.5379,
              41.2477
            ],
            [
              -7.5385,
              41.2478
            ],
            [
              -7.5397,
              41.2469
            ],
            [
              -7.5424,
              41.2459
            ],
            [
              -7.5433,
              41.2465
            ],
            [
              -7.5437,
              41.2471
            ],
            [
              -7.5437,
              41.2473
            ],
            [
              -7.5387,
              41.2521
            ],
            [
              -7.538,
              41.2525
            ],
            [
              -7.5379,
              41.2528
            ],
            [
              -7.538,
              41.2532
            ],
            [
              -7.5388,
              41.2541
            ],
            [
              -7.5389,
              41.2546
            ],
            [
              -7.5386,
              41.2553
            ],
            [
              -7.5374,
              41.2563
            ],
            [
              -7.5374,
              41.2565
            ],
            [
              -7.5389,
              41.2576
            ],
            [
              -7.5403,
              41.2583
            ],
            [
              -7.543,
              41.2579
            ],
            [
              -7.544,
              41.2581
            ],
            [
              -7.5442,
              41.2584
            ],
            [
              -7.5434,
              41.2595
            ],
            [
              -7.5424,
              41.2596
            ],
            [
              -7.5423,
              41.26
            ],
            [
              -7.5427,
              41.2607
            ],
            [
              -7.544,
              41.2617
            ],
            [
              -7.5443,
              41.2639
            ],
            [
              -7.5452,
              41.2644
            ],
            [
              -7.5466,
              41.2649
            ],
            [
              -7.5476,
              41.2659
            ],
            [
              -7.5488,
              41.2676
            ],
            [
              -7.5495,
              41.2676
            ],
            [
              -7.5508,
              41.267
            ],
            [
              -7.5514,
              41.2672
            ],
            [
              -7.5515,
              41.2679
            ],
            [
              -7.5511,
              41.2683
            ],
            [
              -7.5517,
              41.2699
            ],
            [
              -7.5515,
              41.2703
            ],
            [
              -7.5497,
              41.2711
            ],
            [
              -7.5501,
              41.2726
            ],
            [
              -7.5514,
              41.2735
            ],
            [
              -7.5529,
              41.2738
            ],
            [
              -7.5548,
              41.2739
            ],
            [
              -7.5552,
              41.2741
            ],
            [
              -7.5554,
              41.2746
            ],
            [
              -7.5554,
              41.2753
            ],
            [
              -7.5549,
              41.2758
            ],
            [
              -7.5541,
              41.2762
            ],
            [
              -7.5539,
              41.2766
            ],
            [
              -7.5571,
              41.278
            ],
            [
              -7.5556,
              41.2801
            ],
            [
              -7.5556,
              41.2807
            ],
            [
              -7.556,
              41.2812
            ],
            [
              -7.5588,
              41.2827
            ],
            [
              -7.5595,
              41.2837
            ],
            [
              -7.5597,
              41.2849
            ],
            [
              -7.5596,
              41.2851
            ],
            [
              -7.5592,
              41.2853
            ],
            [
              -7.5572,
              41.2855
            ],
            [
              -7.5571,
              41.2858
            ],
            [
              -7.5574,
              41.2868
            ],
            [
              -7.5574,
              41.2874
            ],
            [
              -7.5576,
              41.2877
            ],
            [
              -7.5596,
              41.2875
            ],
            [
              -7.561,
              41.2876
            ],
            [
              -7.5613,
              41.2877
            ],
            [
              -7.5615,
              41.2881
            ],
            [
              -7.5607,
              41.2887
            ],
            [
              -7.5611,
              41.2911
            ],
            [
              -7.5607,
              41.2918
            ],
            [
              -7.5598,
              41.2926
            ],
            [
              -7.5601,
              41.2934
            ],
            [
              -7.5596,
              41.2946
            ],
            [
              -7.5599,
              41.296
            ],
            [
              -7.5606,
              41.2965
            ],
            [
              -7.5614,
              41.2968
            ],
            [
              -7.5636,
              41.2966
            ],
            [
              -7.5647,
              41.297
            ],
            [
              -7.5648,
              41.2974
            ],
            [
              -7.5645,
              41.2979
            ],
            [
              -7.5635,
              41.2984
            ],
            [
              -7.5633,
              41.2988
            ],
            [
              -7.5636,
              41.2995
            ],
            [
              -7.5645,
              41.3003
            ],
            [
              -7.5665,
              41.301
            ],
            [
              -7.5679,
              41.3006
            ],
            [
              -7.5684,
              41.3
            ],
            [
              -7.569,
              41.3
            ],
            [
              -7.5692,
              41.3009
            ],
            [
              -7.5695,
              41.3016
            ],
            [
              -7.5695,
              41.3019
            ],
            [
              -7.5681,
              41.3035
            ],
            [
              -7.568,
              41.3045
            ],
            [
              -7.5675,
              41.305
            ],
            [
              -7.5667,
              41.3051
            ],
            [
              -7.5661,
              41.3054
            ],
            [
              -7.5656,
              41.3065
            ],
            [
              -7.5669,
              41.3072
            ],
            [
              -7.5676,
              41.3073
            ],
            [
              -7.5692,
              41.3069
            ],
            [
              -7.5711,
              41.3073
            ],
            [
              -7.5711,
              41.3075
            ],
            [
              -7.5708,
              41.3083
            ],
            [
              -7.5708,
              41.3089
            ],
            [
              -7.573,
              41.3097
            ],
            [
              -7.573,
              41.3106
            ],
            [
              -7.5713,
              41.3107
            ],
            [
              -7.5697,
              41.3117
            ],
            [
              -7.5698,
              41.3122
            ],
            [
              -7.5702,
              41.3125
            ],
            [
              -7.5713,
              41.3129
            ],
            [
              -7.5713,
              41.3132
            ],
            [
              -7.5704,
              41.3142
            ],
            [
              -7.5682,
              41.3156
            ],
            [
              -7.5681,
              41.3158
            ],
            [
              -7.5684,
              41.3161
            ],
            [
              -7.5695,
              41.3162
            ],
            [
              -7.5701,
              41.3165
            ],
            [
              -7.571,
              41.3178
            ],
            [
              -7.5706,
              41.3182
            ],
            [
              -7.5697,
              41.3185
            ],
            [
              -7.5697,
              41.3187
            ],
            [
              -7.5708,
              41.3201
            ],
            [
              -7.5716,
              41.3208
            ],
            [
              -7.5725,
              41.3214
            ],
            [
              -7.5735,
              41.3216
            ],
            [
              -7.574,
              41.3221
            ],
            [
              -7.5739,
              41.3225
            ],
            [
              -7.5729,
              41.3228
            ],
            [
              -7.5706,
              41.3227
            ],
            [
              -7.5704,
              41.3228
            ],
            [
              -7.5703,
              41.3232
            ],
            [
              -7.5708,
              41.3246
            ],
            [
              -7.5713,
              41.325
            ],
            [
              -7.5721,
              41.3254
            ],
            [
              -7.5747,
              41.3253
            ],
            [
              -7.5756,
              41.3274
            ],
            [
              -7.5754,
              41.3278
            ],
            [
              -7.5737,
              41.3286
            ],
            [
              -7.5735,
              41.3289
            ],
            [
              -7.5736,
              41.3292
            ],
            [
              -7.5756,
              41.3305
            ],
            [
              -7.5777,
              41.3301
            ],
            [
              -7.5791,
              41.3304
            ],
            [
              -7.5795,
              41.3309
            ],
            [
              -7.5793,
              41.3322
            ],
            [
              -7.5799,
              41.3328
            ],
            [
              -7.5801,
              41.3337
            ],
            [
              -7.5813,
              41.3349
            ],
            [
              -7.5833,
              41.3361
            ],
            [
              -7.5832,
              41.3364
            ],
            [
              -7.5819,
              41.3383
            ],
            [
              -7.5809,
              41.3393
            ],
            [
              -7.581,
              41.3397
            ],
            [
              -7.5817,
              41.3403
            ],
            [
              -7.5828,
              41.3419
            ],
            [
              -7.5833,
              41.3422
            ],
            [
              -7.5841,
              41.3422
            ],
            [
              -7.5854,
              41.3415
            ],
            [
              -7.5865,
              41.3412
            ],
            [
              -7.5873,
              41.3414
            ],
            [
              -7.5885,
              41.3419
            ],
            [
              -7.5901,
              41.3419
            ],
            [
              -7.5907,
              41.3423
            ],
            [
              -7.5909,
              41.3432
            ],
            [
              -7.5908,
              41.3436
            ],
            [
              -7.5904,
              41.344
            ],
            [
              -7.5886,
              41.345
            ],
            [
              -7.5882,
              41.3455
            ],
            [
              -7.5884,
              41.3461
            ],
            [
              -7.5902,
              41.3472
            ],
            [
              -7.5904,
              41.3476
            ],
            [
              -7.5899,
              41.3481
            ],
            [
              -7.5889,
              41.3485
            ],
            [
              -7.5886,
              41.3489
            ],
            [
              -7.5887,
              41.3491
            ],
            [
              -7.5895,
              41.3499
            ],
            [
              -7.5911,
              41.3503
            ],
            [
              -7.5918,
              41.3506
            ],
            [
              -7.5919,
              41.3512
            ],
            [
              -7.5919,
              41.3526
            ],
            [
              -7.5921,
              41.3529
            ],
            [
              -7.5944,
              41.3529
            ],
            [
              -7.5951,
              41.3533
            ],
            [
              -7.5953,
              41.3535
            ],
            [
              -7.5952,
              41.3547
            ],
            [
              -7.5958,
              41.3552
            ],
            [
              -7.5959,
              41.3554
            ],
            [
              -7.5955,
              41.356
            ],
            [
              -7.5952,
              41.3563
            ],
            [
              -7.5952,
              41.3565
            ],
            [
              -7.5961,
              41.3569
            ],
            [
              -7.5969,
              41.358
            ],
            [
              -7.5978,
              41.36
            ],
            [
              -7.5986,
              41.3613
            ],
            [
              -7.5991,
              41.3616
            ],
            [
              -7.6007,
              41.362
            ],
            [
              -7.6012,
              41.3624
            ],
            [
              -7.6012,
              41.3632
            ],
            [
              -7.6017,
              41.3644
            ],
            [
              -7.6018,
              41.3662
            ],
            [
              -7.6021,
              41.3669
            ],
            [
              -7.6022,
              41.3687
            ],
            [
              -7.6017,
              41.3707
            ],
            [
              -7.602,
              41.3717
            ],
            [
              -7.602,
              41.3726
            ],
            [
              -7.6032,
              41.3731
            ],
            [
              -7.6037,
              41.3735
            ],
            [
              -7.6036,
              41.3743
            ],
            [
              -7.6034,
              41.3748
            ],
            [
              -7.6029,
              41.3753
            ],
            [
              -7.6021,
              41.3757
            ],
            [
              -7.602,
              41.3761
            ],
            [
              -7.6021,
              41.3768
            ],
            [
              -7.6018,
              41.378
            ],
            [
              -7.6016,
              41.3809
            ],
            [
              -7.6021,
              41.3816
            ],
            [
              -7.6025,
              41.3826
            ],
            [
              -7.6024,
              41.3838
            ],
            [
              -7.6026,
              41.3843
            ],
            [
              -7.6022,
              41.3855
            ],
            [
              -7.6021,
              41.3872
            ],
            [
              -7.6013,
              41.3884
            ],
            [
              -7.6018,
              41.389
            ],
            [
              -7.6018,
              41.3892
            ],
            [
              -7.6008,
              41.3896
            ],
            [
              -7.6006,
              41.3901
            ],
            [
              -7.6016,
              41.3916
            ],
            [
              -7.6016,
              41.3924
            ],
            [
              -7.6014,
              41.3931
            ],
            [
              -7.6014,
              41.3935
            ],
            [
              -7.5951,
              41.3982
            ],
            [
              -7.5937,
              41.3992
            ],
            [
              -7.5888,
              41.4036
            ],
            [
              -7.5858,
              41.4011
            ],
            [
              -7.5841,
              41.4
            ],
            [
              -7.583,
              41.3997
            ]
          ]
        ]
      }
    }
  ]
}