{
  "type": "FeatureCollection",
  "features": [
    {
      "type": "Feature",
      "properties": {
        "id_freguesia": "170101",
        "nome_freguesia": "Alijó",
        "id_municipio": "1701",
        "nome_municipio": "ALIJÓ",
        "distrito": "VILA REAL",
        "pct_empregadores": 5.2,
        "pct_trabalhadores_independentes": 13,
        "pct_servicos": 42,
        "pct_industria": 30,
        "pop_ativa": 1444,
        "taxa_atividade": 47
      },
      "geometry": {
        "type": "Polygon",
        "coordinates": [
          [
            [
              -7.4469,
              41.3112
            ],
            [
              -7.4375,
              41.309
            ],
            [
              -7.4328,
              41.307
            ],
            [
              -7.431,
              41.3057
            ],
            [
              -7.4298,
              41.304
            ],
            [
              -7.4293,
              41.3011
            ],
            [
              -7.4312,
              41.2975
            ],
            [
              -7.4304,
              41.2944
            ],
            [
              -7.426,
              41.2911
            ],
            [
              -7.4208,
              41.2839
            ],
            [
              -7.4191,
              41.2797
            ],
            [
              -7.4234,
              41.2792
            ],
            [
              -7.4262,
              41.2781
            ],
            [
              -7.4275,
              41.2733
            ],
            [
              -7.4292,
              41.2701
            ],
            [
              -7.4312,
              41.2691
            ],
            [
              -7.4385,
              41.2661
            ],
            [
              -7.4443,
              41.2646
            ],
            [
              -7.4507,
              41.2652
            ],
            [
              -7.4533,
              41.2642
            ],
            [
              -7.4554,
              41.2618
            ],
            [
              -7.4578,
              41.2604
            ],
            [
              -7.4583,
              41.2587
            ],
            [
              -7.458,
              41.2511
            ],
            [
              -7.4722,
              41.2497
            ],
            [
              -7.4775,
              41.2504
            ],
            [
              -7.4774,
              41.2518
            ],
            [
              -7.4831,
              41.2644
            ],
            [
              -7.4847,
              41.2646
            ],
            [
              -7.4839,
              41.2661
            ],
            [
              -7.4868,
              41.2706
            ],
            [
              -7.4887,
              41.2752
            ],
            [
              -7.4951,
              41.2818
            ],
            [
              -7.4982,
              41.2861
            ],
            [
              -7.499,
              41.2889
            ],
            [
              -7.4984,
              41.2904
            ],
            [
              -7.4941,
              41.2969
            ],
            [
              -7.4899,
              41.3016
            ],
            [
              -7.4816,
              41.3047
            ],
            [
              -7.4731,
              41.3103
            ],
            [
              -7.4547,
              41.3115
            ],
            [
              -7.4469,
              41.3112
            ]
          ]
        ]
      }
    },
    {
      "type": "Feature",
      "properties": {
        "id_freguesia": "170107",
        "nome_freguesia": "Favaios",
        "id_municipio": "1701",
        "nome_municipio": "ALIJÓ",
        "distrito": "VILA REAL",
        "pct_empregadores": 6.3,
        "pct_trabalhadores_independentes": 12.5,
        "pct_servicos": 48,
        "pct_industria": 25,
        "pop_ativa": 5800,
        "taxa_atividade": 52.9
      },
      "geometry": {
        "type": "Polygon",
        "coordinates": [
          [
            [
              -7.5136,
              41.2815
            ],
            [
              -7.5055,
              41.2814
            ],
            [
              -7.4938,
              41.2805
            ],
            [
              -7.4887,
              41.2752
            ],
            [
              -7.4868,
              41.2706
            ],
            [
              -7.4839,
              41.2661
            ],
            [
              -7.4847,
              41.2646
            ],
            [
              -7.4831,
              41.2644
            ],
            [
              -7.4772,
              41.2511
            ],
            [
              -7.4789,
              41.2491
            ],
            [
              -7.4962,
              41.2368
            ],
            [
              -7.5052,
              41.2333
            ],
            [
              -7.5098,
              41.2327
            ],
            [
              -7.5167,
              41.2331
            ],
            [
              -7.5223,
              41.2364
            ],
            [
              -7.5276,
              41.2421
            ],
            [
              -7.5323,
              41.2508
            ],
            [
              -7.5358,
              41.2559
            ],
            [
              -7.5374,
              41.2563
            ],
            [
              -7.5403,
              41.2583
            ],
            [
              -7.544,
              41.2581
            ],
            [
              -7.5434,
              41.2595
            ],
            [
              -7.5423,
              41.26
            ],
            [
              -7.544,
              41.2617
            ],
            [
              -7.5442,
              41.2637
            ],
            [
              -7.5466,
              41.2649
            ],
            [
              -7.5488,
              41.2676
            ],
            [
              -7.5513,
              41.2671
            ],
            [
              -7.5517,
              41.2697
            ],
            [
              -7.5516,
              41.2701
            ],
            [
              -7.5511,
              41.2696
            ],
            [
              -7.5483,
              41.2697
            ],
            [
              -7.5464,
              41.2703
            ],
            [
              -7.5446,
              41.2693
            ],
            [
              -7.5425,
              41.2722
            ],
            [
              -7.5395,
              41.2733
            ],
            [
              -7.5384,
              41.2748
            ],
            [
              -7.5357,
              41.2745
            ],
            [
              -7.5308,
              41.2749
            ],
            [
              -7.5294,
              41.2754
            ],
            [
              -7.5268,
              41.2785
            ],
            [
              -7.5252,
              41.2795
            ],
            [
              -7.5136,
              41.2815
            ]
          ]
        ]
      }
    },
    {
      "type": "Feature",
      "properties": {
        "id_freguesia": "170108",
        "nome_freguesia": "Pegarinhos",
        "id_municipio": "1701",
        "nome_municipio": "ALIJÓ",
        "distrito": "VILA REAL",
        "pct_empregadores": 4.3,
        "pct_trabalhadores_independentes": 13.3,
        "pct_servicos": 41,
        "pct_industria": 36,
        "pop_ativa": 4030,
        "taxa_atividade": 53.8
      },
      "geometry": {
        "type": "Polygon",
        "coordinates": [
          [
            [
              -7.4344,
              41.3716
            ],
            [
              -7.4115,
              41.3718
            ],
            [
              -7.4098,
              41.3698
            ],
            [
              -7.4116,
              41.3654
            ],
            [
              -7.4104,
              41.3627
            ],
            [
              -7.4118,
              41.3627
            ],
            [
              -7.4131,
              41.3615
            ],
            [
              -7.4155,
              41.3618
            ],
            [
              -7.4165,
              41.3612
            ],
            [
              -7.4165,
              41.3581
            ],
            [
              -7.4181,
              41.3586
            ],
            [
              -7.422,
              41.3586
            ],
            [
              -7.4236,
              41.3537
            ],
            [
              -7.4293,
              41.3453
            ],
            [
              -7.433,
              41.3328
            ],
            [
              -7.4456,
              41.331
            ],
            [
              -7.4524,
              41.3309
            ],
            [
              -7.4642,
              41.3346
            ],
            [
              -7.4695,
              41.3372
            ],
            [
              -7.4709,
              41.3403
            ],
            [
              -7.4729,
              41.3424
            ],
            [
              -7.4725,
              41.3438
            ],
            [
              -7.4738,
              41.3493
            ],
            [
              -7.472,
              41.3497
            ],
            [
              -7.463,
              41.3649
            ],
            [
              -7.4581,
              41.3713
            ],
            [
              -7.4582,
              41.3818
            ],
            [
              -7.4534,
              41.3857
            ],
            [
              -7.4533,
              41.387
            ],
            [
              -7.4509,
              41.3892
            ],
            [
              -7.4499,
              41.3896
            ],
            [
              -7.4484,
              41.3877
            ],
            [
              -7.4458,
              41.3866
            ],
            [
              -7.4434,
              41.3823
            ],
            [
              -7.4387,
              41.3771
            ],
            [
              -7.4362,
              41.3721
            ],
            [
              -7.4344,
              41.3716
            ]
          ]
        ]
      }
    },
    {
      "type": "Feature",
      "properties": {
        "id_freguesia": "170109",
        "nome_freguesia": "Pinhão",
        "id_municipio": "1701",
        "nome_municipio": "ALIJÓ",
        "distrito": "VILA REAL",
        "pct_empregadores": 5,
        "pct_trabalhadores_independentes": 11.9,
        "pct_servicos": 59,
        "pct_industria": 28,
        "pop_ativa": 6980,
        "taxa_atividade": 50.7
      },
      "geometry": {
        "type": "Polygon",
        "coordinates": [
          [
            [
              -7.5209,
              41.1895
            ],
            [
              -7.5174,
              41.19
            ],
            [
              -7.5157,
              41.1889
            ],
            [
              -7.5169,
              41.1859
            ],
            [
              -7.5213,
              41.1807
            ],
            [
              -7.5236,
              41.1797
            ],
            [
              -7.5252,
              41.1797
            ],
            [
              -7.5292,
              41.1811
            ],
            [
              -7.5431,
              41.1883
            ],
            [
              -7.5473,
              41.1886
            ],
            [
              -7.5486,
              41.188
            ],
            [
              -7.5485,
              41.1942
            ],
            [
              -7.5476,
              41.1957
            ],
            [
              -7.5444,
              41.1974
            ],
            [
              -7.5438,
              41.1997
            ],
            [
              -7.5429,
              41.2007
            ],
            [
              -7.5373,
              41.1978
            ],
            [
              -7.5315,
              41.1924
            ],
            [
              -7.5209,
              41.1895
            ]
          ]
        ]
      }
    },
    {
      "type": "Feature",
      "properties": {
        "id_freguesia": "170112",
        "nome_freguesia": "Sanfins do Douro",
        "id_municipio": "1701",
        "nome_municipio": "ALIJÓ",
        "distrito": "VILA REAL",
        "pct_empregadores": 5.9,
        "pct_trabalhadores_independentes": 17.4,
        "pct_servicos": 43,
        "pct_industria": 31,
        "pop_ativa": 6260,
        "taxa_atividade": 50.2
      },
      "geometry": {
        "type": "Polygon",
        "coordinates": [
          [
            [
              -7.5119,
              41.3113
            ],
            [
              -7.5103,
              41.3103
            ],
            [
              -7.5065,
              41.3094
            ],
            [
              -7.5073,
              41.3086
            ],
            [
              -7.5055,
              41.3059
            ],
            [
              -7.5042,
              41.3053
            ],
            [
              -7.5052,
              41.3038
            ],
            [
              -7.5044,
              41.3026
            ],
            [
              -7.5034,
              41.3033
            ],
            [
              -7.5014,
              41.3023
            ],
            [
              -7.4992,
              41.3034
            ],
            [
              -7.4955,
              41.3019
            ],
            [
              -7.4899,
              41.3016
            ],
            [
              -7.4955,
              41.2951
            ],
            [
              -7.499,
              41.2889
            ],
            [
              -7.4987,
              41.2872
            ],
            [
              -7.4973,
              41.2846
            ],
            [
              -7.4938,
              41.2805
            ],
            [
              -7.5055,
              41.2814
            ],
            [
              -7.5141,
              41.2815
            ],
            [
              -7.5241,
              41.2797
            ],
            [
              -7.5264,
              41.2789
            ],
            [
              -7.5294,
              41.2754
            ],
            [
              -7.5308,
              41.2749
            ],
            [
              -7.5357,
              41.2745
            ],
            [
              -7.5384,
              41.2748
            ],
            [
              -7.5395,
              41.2733
            ],
            [
              -7.5425,
              41.2722
            ],
            [
              -7.5445,
              41.2693
            ],
            [
              -7.5464,
              41.2703
            ],
            [
              -7.5511,
              41.2696
            ],
            [
              -7.5515,
              41.2703
            ],
            [
              -7.5497,
              41.2711
            ],
            [
              -7.5501,
              41.2726
            ],
            [
              -7.5514,
              41.2735
            ],
            [
              -7.5552,
              41.2741
            ],
            [
              -7.5554,
              41.2753
            ],
            [
              -7.5539,
              41.2766
            ],
            [
              -7.5571,
              41.278
            ],
            [
              -7.5556,
              41.2807
            ],
            [
              -7.5588,
              41.2827
            ],
            [
              -7.5595,
              41.2837
            ],
            [
              -7.5596,
              41.2851
            ],
            [
              -7.5572,
              41.2855
            ],
            [
              -7.5574,
              41.2874
            ],
            [
              -7.561,
              41.2876
            ],
            [
              -7.5615,
              41.2881
            ],
            [
              -7.5607,
              41.2887
            ],
            [
              -7.5611,
              41.2911
            ],
            [
              -7.5603,
              41.2921
            ],
            [
              -7.5582,
              41.2924
            ],
            [
              -7.5553,
              41.2948
            ],
            [
              -7.5537,
              41.2953
            ],
            [
              -7.552,
              41.2947
            ],
            [
              -7.5512,
              41.2951
            ],
            [
              -7.5516,
              41.2959
            ],
            [
              -7.5509,
              41.2978
            ],
            [
              -7.5538,
              41.2965
            ],
            [
              -7.5542,
              41.2969
            ],
            [
              -7.5524,
              41.3004
            ],
            [
              -7.5507,
              41.3012
            ],
            [
              -7.5519,
              41.3039
            ],
            [
              -7.5503,
              41.305
            ],
            [
              -7.5498,
              41.3034
            ],
            [
              -7.5478,
              41.3038
            ],
            [
              -7.5482,
              41.3048
            ],
            [
              -7.5473,
              41.3058
            ],
            [
              -7.5472,
              41.3068
            ],
            [
              -7.5463,
              41.3067
            ],
            [
              -7.5445,
              41.3049
            ],
            [
              -7.5433,
              41.3051
            ],
            [
              -7.543,
              41.3056
            ],
            [
              -7.5437,
              41.3061
            ],
            [
              -7.5425,
              41.3068
            ],
            [
              -7.542,
              41.3082
            ],
            [
              -7.5414,
              41.3085
            ],
            [
              -7.5394,
              41.3083
            ],
            [
              -7.5395,
              41.3096
            ],
            [
              -7.5384,
              41.311
            ],
            [
              -7.5363,
              41.3109
            ],
            [
              -7.5358,
              41.3093
            ],
            [
              -7.5346,
              41.3094
            ],
            [
              -7.5329,
              41.3088
            ],
            [
              -7.5306,
              41.3102
            ],
            [
              -7.5299,
              41.309
            ],
            [
              -7.5303,
              41.3078
            ],
            [
              -7.5296,
              41.3075
            ],
            [
              -7.5283,
              41.3077
            ],
            [
              -7.5277,
              41.3087
            ],
            [
              -7.5251,
              41.3099
            ],
            [
              -7.5245,
              41.3106
            ],
            [
              -7.5224,
              41.3103
            ],
            [
              -7.5207,
              41.3119
            ],
            [
              -7.5194,
              41.3118
            ],
            [
              -7.5185,
              41.3109
            ],
            [
              -7.5162,
              41.3119
            ],
            [
              -7.5146,
              41.3113
            ],
            [
              -7.5122,
              41.3122
            ],
            [
              -7.5112,
              41.3119
            ],
            [
              -7.5119,
              41.3113
            ]
          ]
        ]
      }
    },
    {
      "type": "Feature",
      "properties": {
        "id_freguesia": "170113",
        "nome_freguesia": "Santa Eugénia",
        "id_municipio": "1701",
        "nome_municipio": "ALIJÓ",
        "distrito": "VILA REAL",
        "pct_empregadores": 7.7,
        "pct_trabalhadores_independentes": 15.7,
        "pct_servicos": 53,
        "pct_industria": 32,
        "pop_ativa": 7815,
        "taxa_atividade": 50.4
      },
      "geometry": {
        "type": "Polygon",
        "coordinates": [
          [
            [
              -7.4095,
              41.3616
            ],
            [
              -7.4044,
              41.3585
            ],
            [
              -7.4032,
              41.3583
            ],
            [
              -7.3998,
              41.3594
            ],
            [
              -7.3967,
              41.3575
            ],
            [
              -7.3959,
              41.3564
            ],
            [
              -7.3945,
              41.3506
            ],
            [
              -7.3906,
              41.3482
            ],
            [
              -7.3885,
              41.3453
            ],
            [
              -7.3872,
              41.3407
            ],
            [
              -7.3876,
              41.3379
            ],
            [
              -7.3916,
              41.3352
            ],
            [
              -7.3928,
              41.336
            ],
            [
              -7.3957,
              41.3347
            ],
            [
              -7.3989,
              41.3344
            ],
            [
              -7.4028,
              41.333
            ],
            [
              -7.41,
              41.3315
            ],
            [
              -7.414,
              41.3312
            ],
            [
              -7.4204,
              41.3315
            ],
            [
              -7.4288,
              41.3333
            ],
            [
              -7.433,
              41.3328
            ],
            [
              -7.4293,
              41.3453
            ],
            [
              -7.4236,
              41.3537
            ],
            [
              -7.422,
              41.3586
            ],
            [
              -7.4181,
              41.3586
            ],
            [
              -7.4165,
              41.3581
            ],
            [
              -7.4169,
              41.3607
            ],
            [
              -7.4156,
              41.3618
            ],
            [
              -7.4131,
              41.3615
            ],
            [
              -7.4119,
              41.3627
            ],
            [
              -7.411,
              41.3628
            ],
            [
              -7.4095,
              41.3616
            ]
          ]
        ]
      }
    },
    {
      "type": "Feature",
      "properties": {
        "id_freguesia": "170114",
        "nome_freguesia": "São Mamede de Ribatua",
        "id_municipio": "1701",
        "nome_municipio": "ALIJÓ",
        "distrito": "VILA REAL",
        "pct_empregadores": 3.6,
        "pct_trabalhadores_independentes": 11.1,
        "pct_servicos": 65,
        "pct_industria": 33,
        "pop_ativa": 5902,
        "taxa_atividade": 47.8
      },
      "geometry": {
        "type": "Polygon",
        "coordinates": [
          [
            [
              -7.4068,
              41.2767
            ],
            [
              -7.4042,
              41.2767
            ],
            [
              -7.4033,
              41.2751
            ],
            [
              -7.3905,
              41.2641
            ],
            [
              -7.3952,
              41.262
            ],
            [
              -7.3942,
              41.2586
            ],
            [
              -7.3921,
              41.2555
            ],
            [
              -7.3954,
              41.2513
            ],
            [
              -7.3891,
              41.2488
            ],
            [
              -7.3873,
              41.2448
            ],
            [
              -7.3886,
              41.243
            ],
            [
              -7.3898,
              41.2425
            ],
            [
              -7.3978,
              41.2434
            ],
            [
              -7.4013,
              41.2445
            ],
            [
              -7.4064,
              41.2445
            ],
            [
              -7.4097,
              41.2457
            ],
            [
              -7.4125,
              41.2483
            ],
            [
              -7.4142,
              41.2484
            ],
            [
              -7.4189,
              41.243
            ],
            [
              -7.4231,
              41.2397
            ],
            [
              -7.4212,
              41.2374
            ],
            [
              -7.4231,
              41.2337
            ],
            [
              -7.4229,
              41.2322
            ],
            [
              -7.42,
              41.2267
            ],
            [
              -7.4211,
              41.2241
            ],
            [
              -7.4215,
              41.2203
            ],
            [
              -7.4268,
              41.2148
            ],
            [
              -7.4284,
              41.2187
            ],
            [
              -7.4275,
              41.2244
            ],
            [
              -7.4317,
              41.2263
            ],
            [
              -7.4321,
              41.2271
            ],
            [
              -7.4317,
              41.2295
            ],
            [
              -7.4323,
              41.2307
            ],
            [
              -7.4341,
              41.2322
            ],
            [
              -7.4356,
              41.2324
            ],
            [
              -7.4369,
              41.2316
            ],
            [
              -7.4394,
              41.233
            ],
            [
              -7.4404,
              41.2351
            ],
            [
              -7.4394,
              41.236
            ],
            [
              -7.4398,
              41.2374
            ],
            [
              -7.4413,
              41.2363
            ],
            [
              -7.4435,
              41.2362
            ],
            [
              -7.4441,
              41.2353
            ],
            [
              -7.4456,
              41.2353
            ],
            [
              -7.448,
              41.2388
            ],
            [
              -7.4484,
              41.2402
            ],
            [
              -7.4479,
              41.2408
            ],
            [
              -7.4505,
              41.2453
            ],
            [
              -7.4517,
              41.2466
            ],
            [
              -7.4546,
              41.2469
            ],
            [
              -7.4566,
              41.2483
            ],
            [
              -7.4581,
              41.2514
            ],
            [
              -7.4583,
              41.2587
            ],
            [
              -7.4578,
              41.2604
            ],
            [
              -7.4554,
              41.2618
            ],
            [
              -7.4533,
              41.2642
            ],
            [
              -7.4514,
              41.265
            ],
            [
              -7.4443,
              41.2646
            ],
            [
              -7.4377,
              41.2664
            ],
            [
              -7.4295,
              41.2699
            ],
            [
              -7.4275,
              41.2733
            ],
            [
              -7.4264,
              41.2776
            ],
            [
              -7.4242,
              41.279
            ],
            [
              -7.4215,
              41.2796
            ],
            [
              -7.4167,
              41.2797
            ],
            [
              -7.4083,
              41.2782
            ],
            [
              -7.4068,
              41.2767
            ]
          ]
        ]
      }
    },
    {
      "type": "Feature",
      "properties": {
        "id_freguesia": "170116",
        "nome_freguesia": "Vila Chã",
        "id_municipio": "1701",
        "nome_municipio": "ALIJÓ",
        "distrito": "VILA REAL",
        "pct_empregadores": 4.3,
        "pct_trabalhadores_independentes": 17.6,
        "pct_servicos": 47,
        "pct_industria": 32,
        "pop_ativa": 7288,
        "taxa_atividade": 53.4
      },
      "geometry": {
        "type": "Polygon",
        "coordinates": [
          [
            [
              -7.4712,
              41.3551
            ],
            [
              -7.469,
              41.3548
            ],
            [
              -7.472,
              41.3497
            ],
            [
              -7.4738,
              41.3493
            ],
            [
              -7.4725,
              41.3438
            ],
            [
              -7.4729,
              41.3424
            ],
            [
              -7.4709,
              41.3403
            ],
            [
              -7.4695,
              41.3372
            ],
            [
              -7.4642,
              41.3346
            ],
            [
              -7.4526,
              41.331
            ],
            [
              -7.4536,
              41.3272
            ],
            [
              -7.4544,
              41.3184
            ],
            [
              -7.458,
              41.3112
            ],
            [
              -7.4731,
              41.3103
            ],
            [
              -7.4816,
              41.3047
            ],
            [
              -7.4899,
              41.3016
            ],
            [
              -7.4955,
              41.3019
            ],
            [
              -7.4992,
              41.3034
            ],
            [
              -7.5014,
              41.3023
            ],
            [
              -7.5034,
              41.3033
            ],
            [
              -7.5043,
              41.3026
            ],
            [
              -7.5052,
              41.3038
            ],
            [
              -7.5042,
              41.3053
            ],
            [
              -7.5064,
              41.3069
            ],
            [
              -7.5073,
              41.3087
            ],
            [
              -7.5064,
              41.3092
            ],
            [
              -7.5068,
              41.3097
            ],
            [
              -7.5103,
              41.3103
            ],
            [
              -7.5118,
              41.3112
            ],
            [
              -7.5112,
              41.3119
            ],
            [
              -7.512,
              41.3122
            ],
            [
              -7.5146,
              41.3113
            ],
            [
              -7.5162,
              41.3119
            ],
            [
              -7.5185,
              41.3109
            ],
            [
              -7.5194,
              41.3118
            ],
            [
              -7.5207,
              41.3119
            ],
            [
              -7.5214,
              41.3114
            ],
            [
              -7.5224,
              41.3122
            ],
            [
              -7.5222,
              41.3129
            ],
            [
              -7.5204,
              41.3136
            ],
            [
              -7.5201,
              41.3153
            ],
            [
              -7.5188,
              41.3154
            ],
            [
              -7.5183,
              41.316
            ],
            [
              -7.5189,
              41.3186
            ],
            [
              -7.5217,
              41.3193
            ],
            [
              -7.5217,
              41.3203
            ],
            [
              -7.52,
              41.3221
            ],
            [
              -7.5165,
              41.3242
            ],
            [
              -7.5163,
              41.3251
            ],
            [
              -7.5115,
              41.328
            ],
            [
              -7.5112,
              41.3321
            ],
            [
              -7.5098,
              41.3334
            ],
            [
              -7.5076,
              41.334
            ],
            [
              -7.5053,
              41.3356
            ],
            [
              -7.5018,
              41.3408
            ],
            [
              -7.501,
              41.3447
            ],
            [
              -7.4896,
              41.3489
            ],
            [
              -7.4861,
              41.3521
            ],
            [
              -7.4824,
              41.3525
            ],
            [
              -7.4818,
              41.3531
            ],
            [
              -7.4777,
              41.3526
            ],
            [
              -7.4737,
              41.3548
            ],
            [
              -7.4712,
              41.3551
            ]
          ]
        ]
      }
    },
    {
      "type": "Feature",
      "properties": {
        "id_freguesia": "170117",
        "nome_freguesia": "Vila Verde",
        "id_municipio": "1701",
        "nome_municipio": "ALIJÓ",
        "distrito": "VILA REAL",
        "pct_empregadores": 4.4,
        "pct_trabalhadores_independentes": 10,
        "pct_servicos": 64,
        "pct_industria": 34,
        "pop_ativa": 3517,
        "taxa_atividade": 55
      },
      "geometry": {
        "type": "Polygon",
        "coordinates": [
          [
            [
              -7.583,
              41.3997
            ],
            [
              -7.5711,
              41.4018
            ],
            [
              -7.563,
              41.3968
            ],
            [
              -7.5503,
              41.3965
            ],
            [
              -7.5257,
              41.4004
            ],
            [
              -7.5221,
              41.4015
            ],
            [
              -7.5205,
              41.4005
            ],
            [
              -7.5182,
              41.3958
            ],
            [
              -7.5163,
              41.3935
            ],
            [
              -7.5156,
              41.3901
            ],
            [
              -7.5145,
              41.3886
            ],
            [
              -7.513,
              41.3885
            ],
            [
              -7.5119,
              41.3877
            ],
            [
              -7.5111,
              41.3859
            ],
            [
              -7.5104,
              41.3857
            ],
            [
              -7.5103,
              41.3843
            ],
            [
              -7.5122,
              41.3776
            ],
            [
              -7.5122,
              41.3746
            ],
            [
              -7.5142,
              41.3683
            ],
            [
              -7.5313,
              41.3552
            ],
            [
              -7.5333,
              41.3527
            ],
            [
              -7.5338,
              41.3482
            ],
            [
              -7.5388,
              41.3468
            ],
            [
              -7.5417,
              41.3453
            ],
            [
              -7.5438,
              41.3433
            ],
            [
              -7.5471,
              41.3423
            ],
            [
              -7.556,
              41.3418
            ],
            [
              -7.5655,
              41.342
            ],
            [
              -7.5693,
              41.3384
            ],
            [
              -7.573,
              41.3361
            ],
            [
              -7.5764,
              41.332
            ],
            [
              -7.5764,
              41.3303
            ],
            [
              -7.5773,
              41.3301
            ],
            [
              -7.5794,
              41.3306
            ],
            [
              -7.5793,
              41.3322
            ],
            [
              -7.5801,
              41.3337
            ],
            [
              -7.5833,
              41.3361
            ],
            [
              -7.5809,
              41.3393
            ],
            [
              -7.5828,
              41.3419
            ],
            [
              -7.5841,
              41.3422
            ],
            [
              -7.5865,
              41.3412
            ],
            [
              -7.5907,
              41.3423
            ],
            [
              -7.5908,
              41.3436
            ],
            [
              -7.5882,
              41.3455
            ],
            [
              -7.5904,
              41.3476
            ],
            [
              -7.5887,
              41.3491
            ],
            [
              -7.5918,
              41.3506
            ],
            [
              -7.5921,
              41.3529
            ],
            [
              -7.5951,
              41.3533
            ],
            [
              -7.5959,
              41.3554
            ],
            [
              -7.5952,
              41.3565
            ],
            [
              -7.5969,
              41.358
            ],
            [
              -7.5986,
              41.3613
            ],
            [
              -7.6012,
              41.3624
            ],
            [
              -7.6021,
              41.3669
            ],
            [
              -7.602,
              41.3726
            ],
            [
              -7.6037,
              41.3735
            ],
            [
              -7.6034,
              41.3748
            ],
            [
              -7.602,
              41.3761
            ],
            [
              -7.6016,
              41.3809
            ],
            [
              -7.6026,
              41.3843
            ],
            [
              -7.6013,
              41.3884
            ],
            [
              -7.6018,
              41.3892
            ],
            [
              -7.6006,
              41.3901
            ],
            [
              -7.6016,
              41.3916
            ],
            [
              -7.6014,
              41.3935
            ],
            [
              -7.5937,
              41.3992
            ],
            [
              -7.5888,
              41.4036
            ],
            [
              -7.5858,
              41.4011
            ],
            [
              -7.583,
              41.3997
            ]
          ]
        ]
      }
    },
    {
      "type": "Feature",
      "properties": {
        "id_freguesia": "170118",
        "nome_freguesia": "Vilar de Maçada",
        "id_municipio": "1701",
        "nome_municipio": "ALIJÓ",
        "distrito": "VILA REAL",
        "pct_empregadores": 6.4,
        "pct_trabalhadores_independentes": 10.4,
        "pct_servicos": 42,
        "pct_industria": 33,
        "pop_ativa": 2487,
        "taxa_atividade": 48.1
      },
      "geometry": {
        "type": "Polygon",
        "coordinates": [
          [
            [
              -7.5315,
              41.3424
            ],
            [
              -7.5298,
              41.3383
            ],
            [
              -7.5262,
              41.3357
            ],
            [
              -7.5211,
              41.3405
            ],
            [
              -7.5009,
              41.3444
            ],
            [
              -7.5018,
              41.3408
            ],
            [
              -7.5053,
              41.3356
            ],
            [
              -7.5076,
              41.334
            ],
            [
              -7.5098,
              41.3334
            ],
            [
              -7.5112,
              41.3321
            ],
            [
              -7.5115,
              41.328
            ],
            [
              -7.5163,
              41.3251
            ],
            [
              -7.5165,
              41.3242
            ],
            [
              -7.52,
              41.3221
            ],
            [
              -7.5217,
              41.3203
            ],
            [
              -7.5217,
              41.3193
            ],
            [
              -7.5189,
              41.3186
            ],
            [
              -7.5183,
              41.316
            ],
            [
              -7.5188,
              41.3154
            ],
            [
              -7.5201,
              41.3153
            ],
            [
              -7.5204,
              41.3135
            ],
            [
              -7.5223,
              41.3128
            ],
            [
              -7.5224,
              41.3122
            ],
            [
              -7.5214,
              41.3114
            ],
            [
              -7.5218,
              41.3108
            ],
            [
              -7.5226,
              41.3102
            ],
            [
              -7.5246,
              41.3106
            ],
            [
              -7.5251,
              41.3099
            ],
            [
              -7.5277,
              41.3087
            ],
            [
              -7.5283,
              41.3077
            ],
            [
              -7.5296,
              41.3075
            ],
            [
              -7.5303,
              41.3078
            ],
            [
              -7.5299,
              41.309
            ],
            [
              -7.5306,
              41.3102
            ],
            [
              -7.5329,
              41.3088
            ],
            [
              -7.5346,
              41.3094
            ],
            [
              -7.5358,
              41.3093
            ],
            [
              -7.5363,
              41.3109
            ],
            [
              -7.5384,
              41.311
            ],
            [
              -7.5395,
              41.3096
            ],
            [
              -7.5394,
              41.3083
            ],
            [
              -7.5414,
              41.3085
            ],
            [
              -7.542,
              41.3082
            ],
            [
              -7.5425,
              41.3068
            ],
            [
              -7.5437,
              41.3061
            ],
            [
              -7.543,
              41.3056
            ],
            [
              -7.5433,
              41.3051
            ],
            [
              -7.5445,
              41.3049
            ],
            [
              -7.5463,
              41.3067
            ],
            [
              -7.5472,
              41.3068
            ],
            [
              -7.5473,
              41.3058
            ],
            [
              -7.5482,
              41.3048
            ],
            [
              -7.5478,
              41.3038
            ],
            [
              -7.5498,
              41.3034
            ],
            [
              -7.5503,
              41.305
            ],
            [
              -7.5519,
              41.3038
            ],
            [
              -7.5507,
              41.3012
            ],
            [
              -7.5524,
              41.3004
            ],
            [
              -7.5542,
              41.2969
            ],
            [
              -7.5538,
              41.2965
            ],
            [
              -7.5509,
              41.2978
            ],
            [
              -7.5516,
              41.2959
            ],
            [
              -7.5513,
              41.2951
            ],
            [
              -7.5521,
              41.2948
            ],
            [
              -7.5537,
              41.2953
            ],
            [
              -7.5557,
              41.2946
            ],
            [
              -7.5582,
              41.2924
            ],
            [
              -7.5601,
              41.2923
            ],
            [
              -7.5596,
              41.2946
            ],
            [
              -7.5601,
              41.2963
            ],
            [
              -7.5648,
              41.2971
            ],
            [
              -7.5633,
              41.2988
            ],
            [
              -7.564,
              41.3
            ],
            [
              -7.5664,
              41.301
            ],
            [
              -7.5679,
              41.3006
            ],
            [
              -7.5684,
              41.3
            ],
            [
              -7.5691,
              41.3002
            ],
            [
              -7.5695,
              41.3019
            ],
            [
              -7.568,
              41.3045
            ],
            [
              -7.5661,
              41.3054
            ],
            [
              -7.5656,
              41.3065
            ],
            [
              -7.5676,
              41.3073
            ],
            [
              -7.5692,
              41.3069
            ],
            [
              -7.5711,
              41.3073
            ],
            [
              -7.5708,
              41.3089
            ],
            [
              -7.573,
              41.3097
            ],
            [
              -7.573,
              41.3106
            ],
            [
              -7.5713,
              41.3107
            ],
            [
              -7.5697,
              41.3117
            ],
            [
              -7.5713,
              41.3132
            ],
            [
              -7.5681,
              41.3159
            ],
            [
              -7.5701,
              41.3165
            ],
            [
              -7.571,
              41.3178
            ],
            [
              -7.5697,
              41.3187
            ],
            [
              -7.5716,
              41.3208
            ],
            [
              -7.5739,
              41.3219
            ],
            [
              -7.5736,
              41.3226
            ],
            [
              -7.5706,
              41.3227
            ],
            [
              -7.5703,
              41.3232
            ],
            [
              -7.5715,
              41.3252
            ],
            [
              -7.5748,
              41.3254
            ],
            [
              -7.5756,
              41.3274
            ],
            [
              -7.5735,
              41.3291
            ],
            [
              -7.5753,
              41.3304
            ],
            [
              -7.5764,
              41.3303
            ],
            [
              -7.5764,
              41.332
            ],
            [
              -7.573,
              41.3362
            ],
            [
              -7.5693,
              41.3384
            ],
            [
              -7.5653,
              41.3421
            ],
            [
              -7.556,
              41.3418
            ],
            [
              -7.5471,
              41.3423
            ],
            [
              -7.5438,
              41.3433
            ],
            [
              -7.5417,
              41.3453
            ],
            [
              -7.5388,
              41.3468
            ],
            [
              -7.5338,
              41.3482
            ],
            [
              -7.5315,
              41.3424
            ]
          ]
        ]
      }
    },
    {
      "type": "Feature",
      "properties": {
        "id_freguesia": "170120",
        "nome_freguesia": "União das freguesias de Carlão e Amieiro",
        "id_municipio": "1701",
        "nome_municipio": "ALIJÓ",
        "distrito": "VILA REAL",
        "pct_empregadores": 5.7,
        "pct_trabalhadores_independentes": 16.9,
        "pct_servicos": 43,
        "pct_industria": 22,
        "pop_ativa": 5704,
        "taxa_atividade": 48.8
      },
      "geometry": {
        "type": "Polygon",
        "coordinates": [
          [
            [
              -7.3894,
              41.3311
            ],
            [
              -7.3883,
              41.3291
            ],
            [
              -7.3864,
              41.3275
            ],
            [
              -7.3846,
              41.3277
            ],
            [
              -7.3819,
              41.3294
            ],
            [
              -7.377,
              41.3294
            ],
            [
              -7.3731,
              41.3303
            ],
            [
              -7.3718,
              41.33
            ],
            [
              -7.3688,
              41.3277
            ],
            [
              -7.3644,
              41.3272
            ],
            [
              -7.3626,
              41.3239
            ],
            [
              -7.37,
              41.3174
            ],
            [
              -7.3745,
              41.3153
            ],
            [
              -7.3757,
              41.3136
            ],
            [
              -7.3749,
              41.3122
            ],
            [
              -7.3726,
              41.3107
            ],
            [
              -7.3686,
              41.3097
            ],
            [
              -7.3661,
              41.3084
            ],
            [
              -7.3621,
              41.3041
            ],
            [
              -7.3699,
              41.3006
            ],
            [
              -7.3717,
              41.2944
            ],
            [
              -7.3727,
              41.2932
            ],
            [
              -7.3854,
              41.2884
            ],
            [
              -7.3897,
              41.2878
            ],
            [
              -7.3908,
              41.2869
            ],
            [
              -7.3934,
              41.2787
            ],
            [
              -7.3926,
              41.2778
            ],
            [
              -7.3888,
              41.2759
            ],
            [
              -7.387,
              41.2733
            ],
            [
              -7.3887,
              41.2688
            ],
            [
              -7.3892,
              41.2652
            ],
            [
              -7.3906,
              41.264
            ],
            [
              -7.3935,
              41.267
            ],
            [
              -7.4033,
              41.2751
            ],
            [
              -7.4042,
              41.2767
            ],
            [
              -7.4068,
              41.2767
            ],
            [
              -7.4083,
              41.2782
            ],
            [
              -7.4124,
              41.2791
            ],
            [
              -7.4191,
              41.2797
            ],
            [
              -7.4208,
              41.2839
            ],
            [
              -7.426,
              41.2911
            ],
            [
              -7.4304,
              41.2944
            ],
            [
              -7.4312,
              41.2975
            ],
            [
              -7.4293,
              41.3017
            ],
            [
              -7.4298,
              41.304
            ],
            [
              -7.4322,
              41.3067
            ],
            [
              -7.4375,
              41.309
            ],
            [
              -7.4442,
              41.3107
            ],
            [
              -7.4505,
              41.3115
            ],
            [
              -7.458,
              41.3112
            ],
            [
              -7.4544,
              41.3184
            ],
            [
              -7.4536,
              41.3272
            ],
            [
              -7.4526,
              41.331
            ],
            [
              -7.4456,
              41.331
            ],
            [
              -7.4293,
              41.3333
            ],
            [
              -7.4209,
              41.3315
            ],
            [
              -7.4112,
              41.3314
            ],
            [
              -7.4034,
              41.3328
            ],
            [
              -7.3989,
              41.3344
            ],
            [
              -7.3957,
              41.3347
            ],
            [
              -7.3925,
              41.336
            ],
            [
              -7.3916,
              41.3352
            ],
            [
              -7.3909,
              41.3323
            ],
            [
              -7.3894,
              41.3311
            ]
          ]
        ]
      }
    },
    {
      "type": "Feature",
      "properties": {
        "id_freguesia": "170121",
        "nome_freguesia": "União das freguesias de Castedo e Cotas",
        "id_municipio": "1701",
        "nome_municipio": "ALIJÓ",
        "distrito": "VILA REAL",
        "pct_empregadores": 6.6,
        "pct_trabalhadores_independentes": 10.4,
        "pct_servicos": 58,
        "pct_industria": 22,
        "pop_ativa": 5047,
        "taxa_atividade": 49.8
      },
      "geometry": {
        "type": "Polygon",
        "coordinates": [
          [
            [
              -7.4571,
              41.2496
            ],
            [
              -7.4556,
              41.2474
            ],
            [
              -7.4533,
              41.2465
            ],
            [
              -7.4517,
              41.2466
            ],
            [
              -7.4503,
              41.245
            ],
            [
              -7.4479,
              41.2408
            ],
            [
              -7.4484,
              41.2402
            ],
            [
              -7.448,
              41.2388
            ],
            [
              -7.4456,
              41.2353
            ],
            [
              -7.4441,
              41.2353
            ],
            [
              -7.4435,
              41.2362
            ],
            [
              -7.4413,
              41.2363
            ],
            [
              -7.4398,
              41.2374
            ],
            [
              -7.4394,
              41.236
            ],
            [
              -7.4404,
              41.2351
            ],
            [
              -7.4394,
              41.233
            ],
            [
              -7.4369,
              41.2316
            ],
            [
              -7.4356,
              41.2324
            ],
            [
              -7.4341,
              41.2322
            ],
            [
              -7.432,
              41.2303
            ],
            [
              -7.4317,
              41.2263
            ],
            [
              -7.4275,
              41.2244
            ],
            [
              -7.4284,
              41.2187
            ],
            [
              -7.4268,
              41.2148
            ],
            [
              -7.4289,
              41.2138
            ],
            [
              -7.4319,
              41.2108
            ],
            [
              -7.4423,
              41.214
            ],
            [
              -7.446,
              41.2147
            ],
            [
              -7.4533,
              41.214
            ],
            [
              -7.4562,
              41.2125
            ],
            [
              -7.4585,
              41.2104
            ],
            [
              -7.4642,
              41.2018
            ],
            [
              -7.4705,
              41.1992
            ],
            [
              -7.4804,
              41.1983
            ],
            [
              -7.4999,
              41.2
            ],
            [
              -7.5042,
              41.199
            ],
            [
              -7.5091,
              41.1966
            ],
            [
              -7.511,
              41.1989
            ],
            [
              -7.5107,
              41.2004
            ],
            [
              -7.5152,
              41.204
            ],
            [
              -7.515,
              41.2076
            ],
            [
              -7.5168,
              41.2076
            ],
            [
              -7.5175,
              41.2082
            ],
            [
              -7.5161,
              41.2099
            ],
            [
              -7.5168,
              41.2107
            ],
            [
              -7.5161,
              41.2122
            ],
            [
              -7.5145,
              41.2125
            ],
            [
              -7.5141,
              41.2141
            ],
            [
              -7.5131,
              41.2144
            ],
            [
              -7.5129,
              41.2153
            ],
            [
              -7.5088,
              41.2172
            ],
            [
              -7.508,
              41.2179
            ],
            [
              -7.5082,
              41.2187
            ],
            [
              -7.5068,
              41.2188
            ],
            [
              -7.5077,
              41.2198
            ],
            [
              -7.5068,
              41.2205
            ],
            [
              -7.5085,
              41.2218
            ],
            [
              -7.5077,
              41.2222
            ],
            [
              -7.5082,
              41.2235
            ],
            [
              -7.5101,
              41.2228
            ],
            [
              -7.5106,
              41.222
            ],
            [
              -7.5121,
              41.2227
            ],
            [
              -7.512,
              41.2243
            ],
            [
              -7.5103,
              41.2246
            ],
            [
              -7.511,
              41.2255
            ],
            [
              -7.5129,
              41.2257
            ],
            [
              -7.5158,
              41.2269
            ],
            [
              -7.5175,
              41.2268
            ],
            [
              -7.5183,
              41.2292
            ],
            [
              -7.5167,
              41.2331
            ],
            [
              -7.5125,
              41.2327
            ],
            [
              -7.5064,
              41.233
            ],
            [
              -7.4975,
              41.2362
            ],
            [
              -7.4896,
              41.2411
            ],
            [
              -7.4775,
              41.2504
            ],
            [
              -7.4722,
              41.2497
            ],
            [
              -7.458,
              41.2511
            ],
            [
              -7.4571,
              41.2496
            ]
          ]
        ]
      }
    },
    {
      "type": "Feature",
      "properties": {
        "id_freguesia": "170122",
        "nome_freguesia": "União das freguesias de Pópulo e Ribalonga",
        "id_municipio": "1701",
        "nome_municipio": "ALIJÓ",
        "distrito": "VILA REAL",
        "pct_empregadores": 6,
        "pct_trabalhadores_independentes": 11.6,
        "pct_servicos": 61,
        "pct_industria": 34,
        "pop_ativa": 2123,
        "taxa_atividade": 50.8
      },
      "geometry": {
        "type": "Polygon",
        "coordinates": [
          [
            [
              -7.4522,
              41.388
            ],
            [
              -7.4533,
              41.387
            ],
            [
              -7.4534,
              41.3857
            ],
            [
              -7.4582,
              41.3818
            ],
            [
              -7.4581,
              41.3713
            ],
            [
              -7.463,
              41.3649
            ],
            [
              -7.469,
              41.3548
            ],
            [
              -7.473,
              41.355
            ],
            [
              -7.4777,
              41.3526
            ],
            [
              -7.4818,
              41.3531
            ],
            [
              -7.4824,
              41.3525
            ],
            [
              -7.4861,
              41.3521
            ],
            [
              -7.4896,
              41.3489
            ],
            [
              -7.4996,
              41.3451
            ],
            [
              -7.5048,
              41.3434
            ],
            [
              -7.5211,
              41.3405
            ],
            [
              -7.5262,
              41.3357
            ],
            [
              -7.5289,
              41.3373
            ],
            [
              -7.5304,
              41.3394
            ],
            [
              -7.5339,
              41.3484
            ],
            [
              -7.5333,
              41.3527
            ],
            [
              -7.5292,
              41.3569
            ],
            [
              -7.5142,
              41.3683
            ],
            [
              -7.5121,
              41.375
            ],
            [
              -7.5122,
              41.378
            ],
            [
              -7.5102,
              41.3833
            ],
            [
              -7.5104,
              41.3857
            ],
            [
              -7.5087,
              41.386
            ],
            [
              -7.5062,
              41.3857
            ],
            [
              -7.5049,
              41.3845
            ],
            [
              -7.5034,
              41.3843
            ],
            [
              -7.4941,
              41.3863
            ],
            [
              -7.4902,
              41.3854
            ],
            [
              -7.4869,
              41.384
            ],
            [
              -7.4796,
              41.3833
            ],
            [
              -7.4756,
              41.3838
            ],
            [
              -7.4748,
              41.3848
            ],
            [
              -7.4734,
              41.3851
            ],
            [
              -7.4699,
              41.385
            ],
            [
              -7.4683,
              41.3861
            ],
            [
              -7.4659,
              41.3857
            ],
            [
              -7.4647,
              41.387
            ],
            [
              -7.4631,
              41.3866
            ],
            [
              -7.4614,
              41.3878
            ],
            [
              -7.458,
              41.3888
            ],
            [
              -7.457,
              41.388
            ],
            [
              -7.4541,
              41.3895
            ],
            [
              -7.4535,
              41.3888
            ],
            [
              -7.4519,
              41.3884
            ],
            [
              -7.4522,
              41.388
            ]
          ]
        ]
      }
    },
    {
      "type": "Feature",
      "properties": {
        "id_freguesia": "170123",
        "nome_freguesia": "União das freguesias de Vale de Mendiz, Casal de Loivos e Vilarinho de Cotas",
        "id_municipio": "1701",
        "nome_municipio": "ALIJÓ",
        "distrito": "VILA REAL",
        "pct_empregadores": 5.2,
        "pct_trabalhadores_independentes": 15.8,
        "pct_servicos": 42,
        "pct_industria": 35,
        "pop_ativa": 6490,
        "taxa_atividade": 45.1
      },
      "geometry": {
        "type": "Polygon",
        "coordinates": [
          [
            [
              -7.5309,
              41.2482
            ],
            [
              -7.5259,
              41.2399
            ],
            [
              -7.5216,
              41.2358
            ],
            [
              -7.5167,
              41.2331
            ],
            [
              -7.5183,
              41.2292
            ],
            [
              -7.5174,
              41.2267
            ],
            [
              -7.5158,
              41.2269
            ],
            [
              -7.5129,
              41.2257
            ],
            [
              -7.511,
              41.2255
            ],
            [
              -7.5103,
              41.2246
            ],
            [
              -7.512,
              41.2243
            ],
            [
              -7.5121,
              41.2227
            ],
            [
              -7.5106,
              41.222
            ],
            [
              -7.5101,
              41.2228
            ],
            [
              -7.5082,
              41.2235
            ],
            [
              -7.5077,
              41.2222
            ],
            [
              -7.5085,
              41.2218
            ],
            [
              -7.5068,
              41.2205
            ],
            [
              -7.5077,
              41.2198
            ],
            [
              -7.5068,
              41.2188
            ],
            [
              -7.5082,
              41.2187
            ],
            [
              -7.5081,
              41.2179
            ],
            [
              -7.5088,
              41.2172
            ],
            [
              -7.5129,
              41.2153
            ],
            [
              -7.5131,
              41.2144
            ],
            [
              -7.5141,
              41.2141
            ],
            [
              -7.5145,
              41.2125
            ],
            [
              -7.516,
              41.2122
            ],
            [
              -7.5168,
              41.2108
            ],
            [
              -7.5161,
              41.2099
            ],
            [
              -7.5175,
              41.2081
            ],
            [
              -7.5168,
              41.2076
            ],
            [
              -7.515,
              41.2076
            ],
            [
              -7.5152,
              41.204
            ],
            [
              -7.5107,
              41.2004
            ],
            [
              -7.511,
              41.1989
            ],
            [
              -7.5091,
              41.1966
            ],
            [
              -7.5138,
              41.192
            ],
            [
              -7.5157,
              41.1889
            ],
            [
              -7.5174,
              41.19
            ],
            [
              -7.5196,
              41.1895
            ],
            [
              -7.5221,
              41.1897
            ],
            [
              -7.5323,
              41.1929
            ],
            [
              -7.5373,
              41.1978
            ],
            [
              -7.5429,
              41.2007
            ],
            [
              -7.5405,
              41.2045
            ],
            [
              -7.5431,
              41.2059
            ],
            [
              -7.5437,
              41.2088
            ],
            [
              -7.5466,
              41.2097
            ],
            [
              -7.548,
              41.2096
            ],
            [
              -7.5485,
              41.2103
            ],
            [
              -7.5481,
              41.2129
            ],
            [
              -7.5446,
              41.2128
            ],
            [
              -7.5439,
              41.2135
            ],
            [
              -7.547,
              41.2157
            ],
            [
              -7.5442,
              41.2167
            ],
            [
              -7.5438,
              41.2191
            ],
            [
              -7.5428,
              41.2202
            ],
            [
              -7.5397,
              41.2194
            ],
            [
              -7.5393,
              41.2224
            ],
            [
              -7.5369,
              41.2241
            ],
            [
              -7.5369,
              41.2252
            ],
            [
              -7.5388,
              41.2261
            ],
            [
              -7.5408,
              41.2292
            ],
            [
              -7.5406,
              41.2297
            ],
            [
              -7.5386,
              41.2311
            ],
            [
              -7.5382,
              41.2294
            ],
            [
              -7.5372,
              41.2294
            ],
            [
              -7.5315,
              41.2333
            ],
            [
              -7.5324,
              41.2346
            ],
            [
              -7.5338,
              41.2345
            ],
            [
              -7.536,
              41.2356
            ],
            [
              -7.5391,
              41.2359
            ],
            [
              -7.5409,
              41.2369
            ],
            [
              -7.5409,
              41.2378
            ],
            [
              -7.5403,
              41.2381
            ],
            [
              -7.5395,
              41.2379
            ],
            [
              -7.5386,
              41.2368
            ],
            [
              -7.5379,
              41.237
            ],
            [
              -7.5382,
              41.2387
            ],
            [
              -7.5396,
              41.2403
            ],
            [
              -7.5369,
              41.2428
            ],
            [
              -7.5379,
              41.2447
            ],
            [
              -7.5368,
              41.2472
            ],
            [
              -7.5385,
              41.2478
            ],
            [
              -7.5424,
              41.2459
            ],
            [
              -7.5437,
              41.2471
            ],
            [
              -7.538,
              41.2525
            ],
            [
              -7.5389,
              41.2546
            ],
            [
              -7.5374,
              41.2563
            ],
            [
              -7.5361,
              41.2562
            ],
            [
              -7.5354,
              41.2554
            ],
            [
              -7.5309,
              41.2482
            ]
          ]
        ]
      }
    }
  ]
}