{
  "type": "FeatureCollection",
  "name": "Vegetacao_3D_Sanfins_do_Douro",
  "features": [
    {
      "type": "Feature",
      "id": "cypress-1",
      "geometry": {
        "type": "Point",
        "coordinates": [
          -7.518660000000001,
          41.2965
        ]
      },
      "properties": {
        "type": "Cipreste Monumental (Cupressus)",
        "species": "Cupressus sempervirens",
        "height": 11.074113393610954,
        "width": 2.2,
        "style": "cypress"
      }
    },
    {
      "type": "Feature",
      "id": "cypress-2",
      "geometry": {
        "type": "Point",
        "coordinates": [
          -7.51834,
          41.2965
        ]
      },
      "properties": {
        "type": "Cipreste Monumental (Cupressus)",
        "species": "Cupressus sempervirens",
        "height": 11.396912232008411,
        "width": 2.2,
        "style": "cypress"
      }
    },
    {
      "type": "Feature",
      "id": "cypress-3",
      "geometry": {
        "type": "Point",
        "coordinates": [
          -7.518660000000001,
          41.2962
        ]
      },
      "properties": {
        "type": "Cipreste Monumental (Cupressus)",
        "species": "Cupressus sempervirens",
        "height": 11.392963120706687,
        "width": 2.2,
        "style": "cypress"
      }
    },
    {
      "type": "Feature",
      "id": "cypress-4",
      "geometry": {
        "type": "Point",
        "coordinates": [
          -7.51834,
          41.2962
        ]
      },
      "properties": {
        "type": "Cipreste Monumental (Cupressus)",
        "species": "Cupressus sempervirens",
        "height": 11.407854069686765,
        "width": 2.2,
        "style": "cypress"
      }
    },
    {
      "type": "Feature",
      "id": "cypress-5",
      "geometry": {
        "type": "Point",
        "coordinates": [
          -7.518660000000001,
          41.2959
        ]
      },
      "properties": {
        "type": "Cipreste Monumental (Cupressus)",
        "species": "Cupressus sempervirens",
        "height": 9.666175860203358,
        "width": 2.2,
        "style": "cypress"
      }
    },
    {
      "type": "Feature",
      "id": "cypress-6",
      "geometry": {
        "type": "Point",
        "coordinates": [
          -7.51834,
          41.2959
        ]
      },
      "properties": {
        "type": "Cipreste Monumental (Cupressus)",
        "species": "Cupressus sempervirens",
        "height": 9.843270967255917,
        "width": 2.2,
        "style": "cypress"
      }
    },
    {
      "type": "Feature",
      "id": "cypress-7",
      "geometry": {
        "type": "Point",
        "coordinates": [
          -7.518660000000001,
          41.2956
        ]
      },
      "properties": {
        "type": "Cipreste Monumental (Cupressus)",
        "species": "Cupressus sempervirens",
        "height": 9.834892291957015,
        "width": 2.2,
        "style": "cypress"
      }
    },
    {
      "type": "Feature",
      "id": "cypress-8",
      "geometry": {
        "type": "Point",
        "coordinates": [
          -7.51834,
          41.2956
        ]
      },
      "properties": {
        "type": "Cipreste Monumental (Cupressus)",
        "species": "Cupressus sempervirens",
        "height": 10.883983299179139,
        "width": 2.2,
        "style": "cypress"
      }
    },
    {
      "type": "Feature",
      "id": "cypress-9",
      "geometry": {
        "type": "Point",
        "coordinates": [
          -7.518660000000001,
          41.295300000000005
        ]
      },
      "properties": {
        "type": "Cipreste Monumental (Cupressus)",
        "species": "Cupressus sempervirens",
        "height": 10.31660460260786,
        "width": 2.2,
        "style": "cypress"
      }
    },
    {
      "type": "Feature",
      "id": "cypress-10",
      "geometry": {
        "type": "Point",
        "coordinates": [
          -7.51834,
          41.295300000000005
        ]
      },
      "properties": {
        "type": "Cipreste Monumental (Cupressus)",
        "species": "Cupressus sempervirens",
        "height": 9.530469620855513,
        "width": 2.2,
        "style": "cypress"
      }
    },
    {
      "type": "Feature",
      "id": "cypress-11",
      "geometry": {
        "type": "Point",
        "coordinates": [
          -7.518660000000001,
          41.295
        ]
      },
      "properties": {
        "type": "Cipreste Monumental (Cupressus)",
        "species": "Cupressus sempervirens",
        "height": 10.134441191641507,
        "width": 2.2,
        "style": "cypress"
      }
    },
    {
      "type": "Feature",
      "id": "cypress-12",
      "geometry": {
        "type": "Point",
        "coordinates": [
          -7.51834,
          41.295
        ]
      },
      "properties": {
        "type": "Cipreste Monumental (Cupressus)",
        "species": "Cupressus sempervirens",
        "height": 10.25456290158989,
        "width": 2.2,
        "style": "cypress"
      }
    },
    {
      "type": "Feature",
      "id": "cypress-13",
      "geometry": {
        "type": "Point",
        "coordinates": [
          -7.518660000000001,
          41.2947
        ]
      },
      "properties": {
        "type": "Cipreste Monumental (Cupressus)",
        "species": "Cupressus sempervirens",
        "height": 10.875477196355432,
        "width": 2.2,
        "style": "cypress"
      }
    },
    {
      "type": "Feature",
      "id": "cypress-14",
      "geometry": {
        "type": "Point",
        "coordinates": [
          -7.51834,
          41.2947
        ]
      },
      "properties": {
        "type": "Cipreste Monumental (Cupressus)",
        "species": "Cupressus sempervirens",
        "height": 9.969162684486191,
        "width": 2.2,
        "style": "cypress"
      }
    },
    {
      "type": "Feature",
      "id": "cypress-15",
      "geometry": {
        "type": "Point",
        "coordinates": [
          -7.518660000000001,
          41.2944
        ]
      },
      "properties": {
        "type": "Cipreste Monumental (Cupressus)",
        "species": "Cupressus sempervirens",
        "height": 10.886979875660225,
        "width": 2.2,
        "style": "cypress"
      }
    },
    {
      "type": "Feature",
      "id": "cypress-16",
      "geometry": {
        "type": "Point",
        "coordinates": [
          -7.51834,
          41.2944
        ]
      },
      "properties": {
        "type": "Cipreste Monumental (Cupressus)",
        "species": "Cupressus sempervirens",
        "height": 10.342442965427473,
        "width": 2.2,
        "style": "cypress"
      }
    },
    {
      "type": "Feature",
      "id": "cypress-17",
      "geometry": {
        "type": "Point",
        "coordinates": [
          -7.518660000000001,
          41.2941
        ]
      },
      "properties": {
        "type": "Cipreste Monumental (Cupressus)",
        "species": "Cupressus sempervirens",
        "height": 10.033272413651698,
        "width": 2.2,
        "style": "cypress"
      }
    },
    {
      "type": "Feature",
      "id": "cypress-18",
      "geometry": {
        "type": "Point",
        "coordinates": [
          -7.51834,
          41.2941
        ]
      },
      "properties": {
        "type": "Cipreste Monumental (Cupressus)",
        "species": "Cupressus sempervirens",
        "height": 9.881517439392738,
        "width": 2.2,
        "style": "cypress"
      }
    },
    {
      "type": "Feature",
      "id": "cypress-19",
      "geometry": {
        "type": "Point",
        "coordinates": [
          -7.518660000000001,
          41.293800000000005
        ]
      },
      "properties": {
        "type": "Cipreste Monumental (Cupressus)",
        "species": "Cupressus sempervirens",
        "height": 9.86977871857755,
        "width": 2.2,
        "style": "cypress"
      }
    },
    {
      "type": "Feature",
      "id": "cypress-20",
      "geometry": {
        "type": "Point",
        "coordinates": [
          -7.51834,
          41.293800000000005
        ]
      },
      "properties": {
        "type": "Cipreste Monumental (Cupressus)",
        "species": "Cupressus sempervirens",
        "height": 9.58799221064742,
        "width": 2.2,
        "style": "cypress"
      }
    },
    {
      "type": "Feature",
      "id": "cypress-21",
      "geometry": {
        "type": "Point",
        "coordinates": [
          -7.518660000000001,
          41.2935
        ]
      },
      "properties": {
        "type": "Cipreste Monumental (Cupressus)",
        "species": "Cupressus sempervirens",
        "height": 10.5096518147472,
        "width": 2.2,
        "style": "cypress"
      }
    },
    {
      "type": "Feature",
      "id": "cypress-22",
      "geometry": {
        "type": "Point",
        "coordinates": [
          -7.51834,
          41.2935
        ]
      },
      "properties": {
        "type": "Cipreste Monumental (Cupressus)",
        "species": "Cupressus sempervirens",
        "height": 9.978852681074827,
        "width": 2.2,
        "style": "cypress"
      }
    },
    {
      "type": "Feature",
      "id": "cypress-23",
      "geometry": {
        "type": "Point",
        "coordinates": [
          -7.518660000000001,
          41.2932
        ]
      },
      "properties": {
        "type": "Cipreste Monumental (Cupressus)",
        "species": "Cupressus sempervirens",
        "height": 10.451690857902827,
        "width": 2.2,
        "style": "cypress"
      }
    },
    {
      "type": "Feature",
      "id": "cypress-24",
      "geometry": {
        "type": "Point",
        "coordinates": [
          -7.51834,
          41.2932
        ]
      },
      "properties": {
        "type": "Cipreste Monumental (Cupressus)",
        "species": "Cupressus sempervirens",
        "height": 10.589101269832144,
        "width": 2.2,
        "style": "cypress"
      }
    },
    {
      "type": "Feature",
      "id": "cypress-25",
      "geometry": {
        "type": "Point",
        "coordinates": [
          -7.518660000000001,
          41.2929
        ]
      },
      "properties": {
        "type": "Cipreste Monumental (Cupressus)",
        "species": "Cupressus sempervirens",
        "height": 9.532682410063849,
        "width": 2.2,
        "style": "cypress"
      }
    },
    {
      "type": "Feature",
      "id": "cypress-26",
      "geometry": {
        "type": "Point",
        "coordinates": [
          -7.51834,
          41.2929
        ]
      },
      "properties": {
        "type": "Cipreste Monumental (Cupressus)",
        "species": "Cupressus sempervirens",
        "height": 10.80356077251087,
        "width": 2.2,
        "style": "cypress"
      }
    },
    {
      "type": "Feature",
      "id": "cypress-27",
      "geometry": {
        "type": "Point",
        "coordinates": [
          -7.518660000000001,
          41.2926
        ]
      },
      "properties": {
        "type": "Cipreste Monumental (Cupressus)",
        "species": "Cupressus sempervirens",
        "height": 10.981738119721552,
        "width": 2.2,
        "style": "cypress"
      }
    },
    {
      "type": "Feature",
      "id": "cypress-28",
      "geometry": {
        "type": "Point",
        "coordinates": [
          -7.51834,
          41.2926
        ]
      },
      "properties": {
        "type": "Cipreste Monumental (Cupressus)",
        "species": "Cupressus sempervirens",
        "height": 10.939854773924377,
        "width": 2.2,
        "style": "cypress"
      }
    },
    {
      "type": "Feature",
      "id": "olive-29",
      "geometry": {
        "type": "Point",
        "coordinates": [
          -7.525880757487606,
          41.28433833832837
        ]
      },
      "properties": {
        "type": "Oliveira Centenária Duriense (Olea)",
        "species": "Olea europaea",
        "height": 5.3848108965739865,
        "width": 5.703387146606659,
        "style": "olive"
      }
    },
    {
      "type": "Feature",
      "id": "olive-30",
      "geometry": {
        "type": "Point",
        "coordinates": [
          -7.524876024801679,
          41.28437875366355
        ]
      },
      "properties": {
        "type": "Oliveira Centenária Duriense (Olea)",
        "species": "Olea europaea",
        "height": 6.659917185163629,
        "width": 6.243068174190201,
        "style": "olive"
      }
    },
    {
      "type": "Feature",
      "id": "olive-31",
      "geometry": {
        "type": "Point",
        "coordinates": [
          -7.522522726511812,
          41.284338220000734
        ]
      },
      "properties": {
        "type": "Oliveira Centenária Duriense (Olea)",
        "species": "Olea europaea",
        "height": 5.284949286173835,
        "width": 5.609732865171906,
        "style": "olive"
      }
    },
    {
      "type": "Feature",
      "id": "olive-32",
      "geometry": {
        "type": "Point",
        "coordinates": [
          -7.520403890974257,
          41.28436956306317
        ]
      },
      "properties": {
        "type": "Oliveira Centenária Duriense (Olea)",
        "species": "Olea europaea",
        "height": 6.569953141327785,
        "width": 5.827006761113782,
        "style": "olive"
      }
    },
    {
      "type": "Feature",
      "id": "olive-33",
      "geometry": {
        "type": "Point",
        "coordinates": [
          -7.518113068672901,
          41.2843224075112
        ]
      },
      "properties": {
        "type": "Oliveira Centenária Duriense (Olea)",
        "species": "Olea europaea",
        "height": 6.246517256010214,
        "width": 5.911232717201608,
        "style": "olive"
      }
    },
    {
      "type": "Feature",
      "id": "olive-34",
      "geometry": {
        "type": "Point",
        "coordinates": [
          -7.5259548066729804,
          41.28527031457817
        ]
      },
      "properties": {
        "type": "Oliveira Centenária Duriense (Olea)",
        "species": "Olea europaea",
        "height": 5.879658785368999,
        "width": 5.0994361667110235,
        "style": "olive"
      }
    },
    {
      "type": "Feature",
      "id": "olive-35",
      "geometry": {
        "type": "Point",
        "coordinates": [
          -7.524727294228139,
          41.28521696834479
        ]
      },
      "properties": {
        "type": "Oliveira Centenária Duriense (Olea)",
        "species": "Olea europaea",
        "height": 5.423005367824899,
        "width": 5.313509735244997,
        "style": "olive"
      }
    },
    {
      "type": "Feature",
      "id": "olive-36",
      "geometry": {
        "type": "Point",
        "coordinates": [
          -7.523670328970794,
          41.285267314597256
        ]
      },
      "properties": {
        "type": "Oliveira Centenária Duriense (Olea)",
        "species": "Olea europaea",
        "height": 6.107177580290959,
        "width": 5.987453078809833,
        "style": "olive"
      }
    },
    {
      "type": "Feature",
      "id": "olive-37",
      "geometry": {
        "type": "Point",
        "coordinates": [
          -7.522666542693961,
          41.28512513722781
        ]
      },
      "properties": {
        "type": "Oliveira Centenária Duriense (Olea)",
        "species": "Olea europaea",
        "height": 5.494361310845895,
        "width": 4.881627677341099,
        "style": "olive"
      }
    },
    {
      "type": "Feature",
      "id": "olive-38",
      "geometry": {
        "type": "Point",
        "coordinates": [
          -7.52146298843571,
          41.28516486289872
        ]
      },
      "properties": {
        "type": "Oliveira Centenária Duriense (Olea)",
        "species": "Olea europaea",
        "height": 5.334579930761381,
        "width": 5.325527518568926,
        "style": "olive"
      }
    },
    {
      "type": "Feature",
      "id": "olive-39",
      "geometry": {
        "type": "Point",
        "coordinates": [
          -7.520466286276686,
          41.28511981855567
        ]
      },
      "properties": {
        "type": "Oliveira Centenária Duriense (Olea)",
        "species": "Olea europaea",
        "height": 5.884809444471704,
        "width": 5.530604448552539,
        "style": "olive"
      }
    },
    {
      "type": "Feature",
      "id": "olive-40",
      "geometry": {
        "type": "Point",
        "coordinates": [
          -7.519343629639336,
          41.28510907350763
        ]
      },
      "properties": {
        "type": "Oliveira Centenária Duriense (Olea)",
        "species": "Olea europaea",
        "height": 6.8624702019738795,
        "width": 6.115905917037611,
        "style": "olive"
      }
    },
    {
      "type": "Feature",
      "id": "olive-41",
      "geometry": {
        "type": "Point",
        "coordinates": [
          -7.518258439098178,
          41.28527049105809
        ]
      },
      "properties": {
        "type": "Oliveira Centenária Duriense (Olea)",
        "species": "Olea europaea",
        "height": 5.222377331309695,
        "width": 5.435688637463079,
        "style": "olive"
      }
    },
    {
      "type": "Feature",
      "id": "olive-42",
      "geometry": {
        "type": "Point",
        "coordinates": [
          -7.516083632493441,
          41.28522002561165
        ]
      },
      "properties": {
        "type": "Oliveira Centenária Duriense (Olea)",
        "species": "Olea europaea",
        "height": 6.081241475071678,
        "width": 5.817968910827463,
        "style": "olive"
      }
    },
    {
      "type": "Feature",
      "id": "olive-43",
      "geometry": {
        "type": "Point",
        "coordinates": [
          -7.528112658261987,
          41.286008522862254
        ]
      },
      "properties": {
        "type": "Oliveira Centenária Duriense (Olea)",
        "species": "Olea europaea",
        "height": 5.332127647788998,
        "width": 6.058691073284907,
        "style": "olive"
      }
    },
    {
      "type": "Feature",
      "id": "olive-44",
      "geometry": {
        "type": "Point",
        "coordinates": [
          -7.525934379481972,
          41.2860341135243
        ]
      },
      "properties": {
        "type": "Oliveira Centenária Duriense (Olea)",
        "species": "Olea europaea",
        "height": 6.529922007111988,
        "width": 4.917063401123024,
        "style": "olive"
      }
    },
    {
      "type": "Feature",
      "id": "olive-45",
      "geometry": {
        "type": "Point",
        "coordinates": [
          -7.523686310326831,
          41.28608978273407
        ]
      },
      "properties": {
        "type": "Oliveira Centenária Duriense (Olea)",
        "species": "Olea europaea",
        "height": 5.257623059126171,
        "width": 5.476577732058666,
        "style": "olive"
      }
    },
    {
      "type": "Feature",
      "id": "olive-46",
      "geometry": {
        "type": "Point",
        "coordinates": [
          -7.522543687323399,
          41.28605886155102
        ]
      },
      "properties": {
        "type": "Oliveira Centenária Duriense (Olea)",
        "species": "Olea europaea",
        "height": 6.959394032257656,
        "width": 5.618387697586023,
        "style": "olive"
      }
    },
    {
      "type": "Feature",
      "id": "olive-47",
      "geometry": {
        "type": "Point",
        "coordinates": [
          -7.521460745706369,
          41.28613188770581
        ]
      },
      "properties": {
        "type": "Oliveira Centenária Duriense (Olea)",
        "species": "Olea europaea",
        "height": 5.20943067013485,
        "width": 5.640369385682335,
        "style": "olive"
      }
    },
    {
      "type": "Feature",
      "id": "olive-48",
      "geometry": {
        "type": "Point",
        "coordinates": [
          -7.518275445322935,
          41.28612991810931
        ]
      },
      "properties": {
        "type": "Oliveira Centenária Duriense (Olea)",
        "species": "Olea europaea",
        "height": 6.385762133966759,
        "width": 4.841134302138336,
        "style": "olive"
      }
    },
    {
      "type": "Feature",
      "id": "olive-49",
      "geometry": {
        "type": "Point",
        "coordinates": [
          -7.5170830285861605,
          41.28602851765474
        ]
      },
      "properties": {
        "type": "Oliveira Centenária Duriense (Olea)",
        "species": "Olea europaea",
        "height": 5.327799886067541,
        "width": 5.641070121237642,
        "style": "olive"
      }
    },
    {
      "type": "Feature",
      "id": "olive-50",
      "geometry": {
        "type": "Point",
        "coordinates": [
          -7.5248869829196074,
          41.287027913381294
        ]
      },
      "properties": {
        "type": "Oliveira Centenária Duriense (Olea)",
        "species": "Olea europaea",
        "height": 5.217838126276254,
        "width": 6.099699570941827,
        "style": "olive"
      }
    },
    {
      "type": "Feature",
      "id": "olive-51",
      "geometry": {
        "type": "Point",
        "coordinates": [
          -7.5181710637611685,
          41.287026589183135
        ]
      },
      "properties": {
        "type": "Oliveira Centenária Duriense (Olea)",
        "species": "Olea europaea",
        "height": 5.617481441907876,
        "width": 6.24040568248019,
        "style": "olive"
      }
    },
    {
      "type": "Feature",
      "id": "olive-52",
      "geometry": {
        "type": "Point",
        "coordinates": [
          -7.517022634947043,
          41.28690871209096
        ]
      },
      "properties": {
        "type": "Oliveira Centenária Duriense (Olea)",
        "species": "Olea europaea",
        "height": 6.4048253863390165,
        "width": 5.340783061710488,
        "style": "olive"
      }
    },
    {
      "type": "Feature",
      "id": "olive-53",
      "geometry": {
        "type": "Point",
        "coordinates": [
          -7.516073871874598,
          41.28693878887887
        ]
      },
      "properties": {
        "type": "Oliveira Centenária Duriense (Olea)",
        "species": "Olea europaea",
        "height": 6.433794635268718,
        "width": 6.2864985559112965,
        "style": "olive"
      }
    },
    {
      "type": "Feature",
      "id": "olive-54",
      "geometry": {
        "type": "Point",
        "coordinates": [
          -7.5149093968814435,
          41.28695594691555
        ]
      },
      "properties": {
        "type": "Oliveira Centenária Duriense (Olea)",
        "species": "Olea europaea",
        "height": 5.942226321742737,
        "width": 5.404087559577768,
        "style": "olive"
      }
    },
    {
      "type": "Feature",
      "id": "olive-55",
      "geometry": {
        "type": "Point",
        "coordinates": [
          -7.513809573759641,
          41.28698792964204
        ]
      },
      "properties": {
        "type": "Oliveira Centenária Duriense (Olea)",
        "species": "Olea europaea",
        "height": 5.8533653824419645,
        "width": 4.881601942015527,
        "style": "olive"
      }
    },
    {
      "type": "Feature",
      "id": "olive-56",
      "geometry": {
        "type": "Point",
        "coordinates": [
          -7.529120186312451,
          41.287813669579876
        ]
      },
      "properties": {
        "type": "Oliveira Centenária Duriense (Olea)",
        "species": "Olea europaea",
        "height": 5.428905477244389,
        "width": 5.753859578186311,
        "style": "olive"
      }
    },
    {
      "type": "Feature",
      "id": "olive-57",
      "geometry": {
        "type": "Point",
        "coordinates": [
          -7.527030352479313,
          41.28794690161826
        ]
      },
      "properties": {
        "type": "Oliveira Centenária Duriense (Olea)",
        "species": "Olea europaea",
        "height": 5.457816453058697,
        "width": 5.7674620352941135,
        "style": "olive"
      }
    },
    {
      "type": "Feature",
      "id": "olive-58",
      "geometry": {
        "type": "Point",
        "coordinates": [
          -7.525949264104174,
          41.287892211134796
        ]
      },
      "properties": {
        "type": "Oliveira Centenária Duriense (Olea)",
        "species": "Olea europaea",
        "height": 6.895782614378303,
        "width": 5.741266191287838,
        "style": "olive"
      }
    },
    {
      "type": "Feature",
      "id": "olive-59",
      "geometry": {
        "type": "Point",
        "coordinates": [
          -7.52372544286746,
          41.28781838216827
        ]
      },
      "properties": {
        "type": "Oliveira Centenária Duriense (Olea)",
        "species": "Olea europaea",
        "height": 6.862572116549086,
        "width": 5.3885744407403315,
        "style": "olive"
      }
    },
    {
      "type": "Feature",
      "id": "olive-60",
      "geometry": {
        "type": "Point",
        "coordinates": [
          -7.522589000605327,
          41.287943945930024
        ]
      },
      "properties": {
        "type": "Oliveira Centenária Duriense (Olea)",
        "species": "Olea europaea",
        "height": 6.44475237748115,
        "width": 4.87405743637292,
        "style": "olive"
      }
    },
    {
      "type": "Feature",
      "id": "olive-61",
      "geometry": {
        "type": "Point",
        "coordinates": [
          -7.519269066372478,
          41.28792597919081
        ]
      },
      "properties": {
        "type": "Oliveira Centenária Duriense (Olea)",
        "species": "Olea europaea",
        "height": 6.7487842723280815,
        "width": 5.541567138574679,
        "style": "olive"
      }
    },
    {
      "type": "Feature",
      "id": "olive-62",
      "geometry": {
        "type": "Point",
        "coordinates": [
          -7.518146241221898,
          41.28785397501428
        ]
      },
      "properties": {
        "type": "Oliveira Centenária Duriense (Olea)",
        "species": "Olea europaea",
        "height": 6.736063199598436,
        "width": 6.0280153887183126,
        "style": "olive"
      }
    },
    {
      "type": "Feature",
      "id": "olive-63",
      "geometry": {
        "type": "Point",
        "coordinates": [
          -7.517180867195786,
          41.287917495585106
        ]
      },
      "properties": {
        "type": "Oliveira Centenária Duriense (Olea)",
        "species": "Olea europaea",
        "height": 5.336473716141072,
        "width": 5.32666681839728,
        "style": "olive"
      }
    },
    {
      "type": "Feature",
      "id": "olive-64",
      "geometry": {
        "type": "Point",
        "coordinates": [
          -7.516023761270934,
          41.28780533347506
        ]
      },
      "properties": {
        "type": "Oliveira Centenária Duriense (Olea)",
        "species": "Olea europaea",
        "height": 6.9299230124590565,
        "width": 6.259183293336993,
        "style": "olive"
      }
    },
    {
      "type": "Feature",
      "id": "olive-65",
      "geometry": {
        "type": "Point",
        "coordinates": [
          -7.5148773801180155,
          41.28789822897842
        ]
      },
      "properties": {
        "type": "Oliveira Centenária Duriense (Olea)",
        "species": "Olea europaea",
        "height": 5.510081558678289,
        "width": 5.369560614775293,
        "style": "olive"
      }
    },
    {
      "type": "Feature",
      "id": "olive-66",
      "geometry": {
        "type": "Point",
        "coordinates": [
          -7.51376243566659,
          41.28798256310296
        ]
      },
      "properties": {
        "type": "Oliveira Centenária Duriense (Olea)",
        "species": "Olea europaea",
        "height": 6.048560194085902,
        "width": 5.716405558255192,
        "style": "olive"
      }
    },
    {
      "type": "Feature",
      "id": "olive-67",
      "geometry": {
        "type": "Point",
        "coordinates": [
          -7.5302572509161285,
          41.288766899226594
        ]
      },
      "properties": {
        "type": "Oliveira Centenária Duriense (Olea)",
        "species": "Olea europaea",
        "height": 5.787311868888972,
        "width": 5.956766675643902,
        "style": "olive"
      }
    },
    {
      "type": "Feature",
      "id": "olive-68",
      "geometry": {
        "type": "Point",
        "coordinates": [
          -7.52693846714391,
          41.288874237777875
        ]
      },
      "properties": {
        "type": "Oliveira Centenária Duriense (Olea)",
        "species": "Olea europaea",
        "height": 6.944911699874028,
        "width": 5.811276591447651,
        "style": "olive"
      }
    },
    {
      "type": "Feature",
      "id": "olive-69",
      "geometry": {
        "type": "Point",
        "coordinates": [
          -7.5237637786610545,
          41.28878353347184
        ]
      },
      "properties": {
        "type": "Oliveira Centenária Duriense (Olea)",
        "species": "Olea europaea",
        "height": 5.258022039057128,
        "width": 6.08118824730259,
        "style": "olive"
      }
    },
    {
      "type": "Feature",
      "id": "olive-70",
      "geometry": {
        "type": "Point",
        "coordinates": [
          -7.520432973319685,
          41.28885328357538
        ]
      },
      "properties": {
        "type": "Oliveira Centenária Duriense (Olea)",
        "species": "Olea europaea",
        "height": 6.765291757378995,
        "width": 5.367319557672095,
        "style": "olive"
      }
    },
    {
      "type": "Feature",
      "id": "olive-71",
      "geometry": {
        "type": "Point",
        "coordinates": [
          -7.5192524369366565,
          41.28887101296595
        ]
      },
      "properties": {
        "type": "Oliveira Centenária Duriense (Olea)",
        "species": "Olea europaea",
        "height": 6.869844958864811,
        "width": 4.828743147954553,
        "style": "olive"
      }
    },
    {
      "type": "Feature",
      "id": "olive-72",
      "geometry": {
        "type": "Point",
        "coordinates": [
          -7.51703650426251,
          41.28885187674073
        ]
      },
      "properties": {
        "type": "Oliveira Centenária Duriense (Olea)",
        "species": "Olea europaea",
        "height": 5.957449704165762,
        "width": 5.979712495530906,
        "style": "olive"
      }
    },
    {
      "type": "Feature",
      "id": "olive-73",
      "geometry": {
        "type": "Point",
        "coordinates": [
          -7.513857483849278,
          41.28873591532895
        ]
      },
      "properties": {
        "type": "Oliveira Centenária Duriense (Olea)",
        "species": "Olea europaea",
        "height": 5.881813772652716,
        "width": 4.937243674601785,
        "style": "olive"
      }
    },
    {
      "type": "Feature",
      "id": "olive-74",
      "geometry": {
        "type": "Point",
        "coordinates": [
          -7.530300029980312,
          41.28970351680185
        ]
      },
      "properties": {
        "type": "Oliveira Centenária Duriense (Olea)",
        "species": "Olea europaea",
        "height": 6.058044780552335,
        "width": 5.092353845276387,
        "style": "olive"
      }
    },
    {
      "type": "Feature",
      "id": "olive-75",
      "geometry": {
        "type": "Point",
        "coordinates": [
          -7.528108223730138,
          41.28974333136915
        ]
      },
      "properties": {
        "type": "Oliveira Centenária Duriense (Olea)",
        "species": "Olea europaea",
        "height": 6.195216984644787,
        "width": 5.306832840769108,
        "style": "olive"
      }
    },
    {
      "type": "Feature",
      "id": "olive-76",
      "geometry": {
        "type": "Point",
        "coordinates": [
          -7.523674112818059,
          41.28973229971051
        ]
      },
      "properties": {
        "type": "Oliveira Centenária Duriense (Olea)",
        "species": "Olea europaea",
        "height": 6.528896101646486,
        "width": 5.2263915417913305,
        "style": "olive"
      }
    },
    {
      "type": "Feature",
      "id": "olive-77",
      "geometry": {
        "type": "Point",
        "coordinates": [
          -7.521445036108843,
          41.289699283803586
        ]
      },
      "properties": {
        "type": "Oliveira Centenária Duriense (Olea)",
        "species": "Olea europaea",
        "height": 6.882689047520986,
        "width": 5.582516361582503,
        "style": "olive"
      }
    },
    {
      "type": "Feature",
      "id": "olive-78",
      "geometry": {
        "type": "Point",
        "coordinates": [
          -7.519207621281479,
          41.28976735404437
        ]
      },
      "properties": {
        "type": "Oliveira Centenária Duriense (Olea)",
        "species": "Olea europaea",
        "height": 5.695916929380825,
        "width": 6.188786023767629,
        "style": "olive"
      }
    },
    {
      "type": "Feature",
      "id": "olive-79",
      "geometry": {
        "type": "Point",
        "coordinates": [
          -7.518282127458939,
          41.28971342962529
        ]
      },
      "properties": {
        "type": "Oliveira Centenária Duriense (Olea)",
        "species": "Olea europaea",
        "height": 6.38633357684276,
        "width": 5.015849984363284,
        "style": "olive"
      }
    },
    {
      "type": "Feature",
      "id": "olive-80",
      "geometry": {
        "type": "Point",
        "coordinates": [
          -7.517123855075479,
          41.28975715653531
        ]
      },
      "properties": {
        "type": "Oliveira Centenária Duriense (Olea)",
        "species": "Olea europaea",
        "height": 6.371376479137205,
        "width": 5.431648005081369,
        "style": "olive"
      }
    },
    {
      "type": "Feature",
      "id": "olive-81",
      "geometry": {
        "type": "Point",
        "coordinates": [
          -7.512727781581429,
          41.289622021831285
        ]
      },
      "properties": {
        "type": "Oliveira Centenária Duriense (Olea)",
        "species": "Olea europaea",
        "height": 6.016759081904447,
        "width": 6.104302447533719,
        "style": "olive"
      }
    },
    {
      "type": "Feature",
      "id": "olive-82",
      "geometry": {
        "type": "Point",
        "coordinates": [
          -7.530223357670643,
          41.290526005922786
        ]
      },
      "properties": {
        "type": "Oliveira Centenária Duriense (Olea)",
        "species": "Olea europaea",
        "height": 6.870544186694857,
        "width": 5.190568667890061,
        "style": "olive"
      }
    },
    {
      "type": "Feature",
      "id": "olive-83",
      "geometry": {
        "type": "Point",
        "coordinates": [
          -7.529229605953777,
          41.2905721368152
        ]
      },
      "properties": {
        "type": "Oliveira Centenária Duriense (Olea)",
        "species": "Olea europaea",
        "height": 6.549852956029815,
        "width": 6.239478647170252,
        "style": "olive"
      }
    },
    {
      "type": "Feature",
      "id": "olive-84",
      "geometry": {
        "type": "Point",
        "coordinates": [
          -7.527007092337837,
          41.29067975387926
        ]
      },
      "properties": {
        "type": "Oliveira Centenária Duriense (Olea)",
        "species": "Olea europaea",
        "height": 6.738812124793401,
        "width": 4.920175981839066,
        "style": "olive"
      }
    },
    {
      "type": "Feature",
      "id": "olive-85",
      "geometry": {
        "type": "Point",
        "coordinates": [
          -7.525835233663352,
          41.29067611422036
        ]
      },
      "properties": {
        "type": "Oliveira Centenária Duriense (Olea)",
        "species": "Olea europaea",
        "height": 5.607314905300276,
        "width": 5.239139956124728,
        "style": "olive"
      }
    },
    {
      "type": "Feature",
      "id": "olive-86",
      "geometry": {
        "type": "Point",
        "coordinates": [
          -7.524850570297981,
          41.290671149982295
        ]
      },
      "properties": {
        "type": "Oliveira Centenária Duriense (Olea)",
        "species": "Olea europaea",
        "height": 6.340287148425808,
        "width": 6.154442503016952,
        "style": "olive"
      }
    },
    {
      "type": "Feature",
      "id": "olive-87",
      "geometry": {
        "type": "Point",
        "coordinates": [
          -7.523649851000869,
          41.29062729314257
        ]
      },
      "properties": {
        "type": "Oliveira Centenária Duriense (Olea)",
        "species": "Olea europaea",
        "height": 6.3206288557244426,
        "width": 4.8105844204908745,
        "style": "olive"
      }
    },
    {
      "type": "Feature",
      "id": "olive-88",
      "geometry": {
        "type": "Point",
        "coordinates": [
          -7.5181088913903,
          41.29066291969185
        ]
      },
      "properties": {
        "type": "Oliveira Centenária Duriense (Olea)",
        "species": "Olea europaea",
        "height": 5.393693738847562,
        "width": 5.043073542437263,
        "style": "olive"
      }
    },
    {
      "type": "Feature",
      "id": "olive-89",
      "geometry": {
        "type": "Point",
        "coordinates": [
          -7.514800347608374,
          41.29068298783556
        ]
      },
      "properties": {
        "type": "Oliveira Centenária Duriense (Olea)",
        "species": "Olea europaea",
        "height": 5.574672655102933,
        "width": 5.9070872178856035,
        "style": "olive"
      }
    },
    {
      "type": "Feature",
      "id": "olive-90",
      "geometry": {
        "type": "Point",
        "coordinates": [
          -7.5127590178542905,
          41.29069629741047
        ]
      },
      "properties": {
        "type": "Oliveira Centenária Duriense (Olea)",
        "species": "Olea europaea",
        "height": 5.272714851833749,
        "width": 5.600829597672395,
        "style": "olive"
      }
    },
    {
      "type": "Feature",
      "id": "olive-91",
      "geometry": {
        "type": "Point",
        "coordinates": [
          -7.52918139743452,
          41.291525643139884
        ]
      },
      "properties": {
        "type": "Oliveira Centenária Duriense (Olea)",
        "species": "Olea europaea",
        "height": 6.303071476135308,
        "width": 6.161349443535148,
        "style": "olive"
      }
    },
    {
      "type": "Feature",
      "id": "olive-92",
      "geometry": {
        "type": "Point",
        "coordinates": [
          -7.52701182754044,
          41.29140716603859
        ]
      },
      "properties": {
        "type": "Oliveira Centenária Duriense (Olea)",
        "species": "Olea europaea",
        "height": 6.100107927021126,
        "width": 5.75848297930313,
        "style": "olive"
      }
    },
    {
      "type": "Feature",
      "id": "olive-93",
      "geometry": {
        "type": "Point",
        "coordinates": [
          -7.519213987761078,
          41.29146916290999
        ]
      },
      "properties": {
        "type": "Oliveira Centenária Duriense (Olea)",
        "species": "Olea europaea",
        "height": 6.777039195364339,
        "width": 5.136835780541552,
        "style": "olive"
      }
    },
    {
      "type": "Feature",
      "id": "olive-94",
      "geometry": {
        "type": "Point",
        "coordinates": [
          -7.517149753443772,
          41.291460105128046
        ]
      },
      "properties": {
        "type": "Oliveira Centenária Duriense (Olea)",
        "species": "Olea europaea",
        "height": 6.277455073744598,
        "width": 5.146159258740217,
        "style": "olive"
      }
    },
    {
      "type": "Feature",
      "id": "olive-95",
      "geometry": {
        "type": "Point",
        "coordinates": [
          -7.515955579628891,
          41.29151401365042
        ]
      },
      "properties": {
        "type": "Oliveira Centenária Duriense (Olea)",
        "species": "Olea europaea",
        "height": 6.332858986546305,
        "width": 6.228779109928087,
        "style": "olive"
      }
    },
    {
      "type": "Feature",
      "id": "olive-96",
      "geometry": {
        "type": "Point",
        "coordinates": [
          -7.513733512755079,
          41.291519466093234
        ]
      },
      "properties": {
        "type": "Oliveira Centenária Duriense (Olea)",
        "species": "Olea europaea",
        "height": 6.873555010891406,
        "width": 5.74784252731841,
        "style": "olive"
      }
    },
    {
      "type": "Feature",
      "id": "olive-97",
      "geometry": {
        "type": "Point",
        "coordinates": [
          -7.512646677522214,
          41.29145982405432
        ]
      },
      "properties": {
        "type": "Oliveira Centenária Duriense (Olea)",
        "species": "Olea europaea",
        "height": 6.9526758430819005,
        "width": 6.049143881842615,
        "style": "olive"
      }
    },
    {
      "type": "Feature",
      "id": "olive-98",
      "geometry": {
        "type": "Point",
        "coordinates": [
          -7.511674313456595,
          41.291531098586546
        ]
      },
      "properties": {
        "type": "Oliveira Centenária Duriense (Olea)",
        "species": "Olea europaea",
        "height": 6.374849417989438,
        "width": 4.895106052096957,
        "style": "olive"
      }
    },
    {
      "type": "Feature",
      "id": "olive-99",
      "geometry": {
        "type": "Point",
        "coordinates": [
          -7.530381293226176,
          41.29240942499505
        ]
      },
      "properties": {
        "type": "Oliveira Centenária Duriense (Olea)",
        "species": "Olea europaea",
        "height": 5.407953279654487,
        "width": 5.378067256690726,
        "style": "olive"
      }
    },
    {
      "type": "Feature",
      "id": "olive-100",
      "geometry": {
        "type": "Point",
        "coordinates": [
          -7.526974394734351,
          41.29236733727158
        ]
      },
      "properties": {
        "type": "Oliveira Centenária Duriense (Olea)",
        "species": "Olea europaea",
        "height": 5.696581106230997,
        "width": 6.103078511897802,
        "style": "olive"
      }
    },
    {
      "type": "Feature",
      "id": "olive-101",
      "geometry": {
        "type": "Point",
        "coordinates": [
          -7.525907405293109,
          41.29238577615827
        ]
      },
      "properties": {
        "type": "Oliveira Centenária Duriense (Olea)",
        "species": "Olea europaea",
        "height": 5.686165268883248,
        "width": 5.207591783102128,
        "style": "olive"
      }
    },
    {
      "type": "Feature",
      "id": "olive-102",
      "geometry": {
        "type": "Point",
        "coordinates": [
          -7.524867464069739,
          41.292433405941644
        ]
      },
      "properties": {
        "type": "Oliveira Centenária Duriense (Olea)",
        "species": "Olea europaea",
        "height": 6.225869432702589,
        "width": 5.976789243182022,
        "style": "olive"
      }
    },
    {
      "type": "Feature",
      "id": "olive-103",
      "geometry": {
        "type": "Point",
        "coordinates": [
          -7.5192414659695155,
          41.29245462148372
        ]
      },
      "properties": {
        "type": "Oliveira Centenária Duriense (Olea)",
        "species": "Olea europaea",
        "height": 5.919403951246451,
        "width": 5.2144245232644835,
        "style": "olive"
      }
    },
    {
      "type": "Feature",
      "id": "olive-104",
      "geometry": {
        "type": "Point",
        "coordinates": [
          -7.5182216649759415,
          41.29230785739858
        ]
      },
      "properties": {
        "type": "Oliveira Centenária Duriense (Olea)",
        "species": "Olea europaea",
        "height": 5.295233524012079,
        "width": 5.086273482079471,
        "style": "olive"
      }
    },
    {
      "type": "Feature",
      "id": "olive-105",
      "geometry": {
        "type": "Point",
        "coordinates": [
          -7.517013715633444,
          41.29231908551435
        ]
      },
      "properties": {
        "type": "Oliveira Centenária Duriense (Olea)",
        "species": "Olea europaea",
        "height": 6.79868091934571,
        "width": 4.83112614739924,
        "style": "olive"
      }
    },
    {
      "type": "Feature",
      "id": "olive-106",
      "geometry": {
        "type": "Point",
        "coordinates": [
          -7.516037658720922,
          41.29248971926063
        ]
      },
      "properties": {
        "type": "Oliveira Centenária Duriense (Olea)",
        "species": "Olea europaea",
        "height": 5.732672326064254,
        "width": 5.731354988584139,
        "style": "olive"
      }
    },
    {
      "type": "Feature",
      "id": "olive-107",
      "geometry": {
        "type": "Point",
        "coordinates": [
          -7.514892755323599,
          41.292317330913505
        ]
      },
      "properties": {
        "type": "Oliveira Centenária Duriense (Olea)",
        "species": "Olea europaea",
        "height": 6.959748281406897,
        "width": 4.942131224688591,
        "style": "olive"
      }
    },
    {
      "type": "Feature",
      "id": "olive-108",
      "geometry": {
        "type": "Point",
        "coordinates": [
          -7.51266426870354,
          41.29241407786498
        ]
      },
      "properties": {
        "type": "Oliveira Centenária Duriense (Olea)",
        "species": "Olea europaea",
        "height": 5.819814816547176,
        "width": 4.928195800220457,
        "style": "olive"
      }
    },
    {
      "type": "Feature",
      "id": "olive-109",
      "geometry": {
        "type": "Point",
        "coordinates": [
          -7.527096376063516,
          41.293332168152425
        ]
      },
      "properties": {
        "type": "Oliveira Centenária Duriense (Olea)",
        "species": "Olea europaea",
        "height": 5.660883099970719,
        "width": 6.197406518918592,
        "style": "olive"
      }
    },
    {
      "type": "Feature",
      "id": "olive-110",
      "geometry": {
        "type": "Point",
        "coordinates": [
          -7.524860445617789,
          41.29323629546003
        ]
      },
      "properties": {
        "type": "Oliveira Centenária Duriense (Olea)",
        "species": "Olea europaea",
        "height": 6.51617126232239,
        "width": 5.013946165334074,
        "style": "olive"
      }
    },
    {
      "type": "Feature",
      "id": "olive-111",
      "geometry": {
        "type": "Point",
        "coordinates": [
          -7.522673877524037,
          41.293256556267316
        ]
      },
      "properties": {
        "type": "Oliveira Centenária Duriense (Olea)",
        "species": "Olea europaea",
        "height": 5.950284460345758,
        "width": 5.505893075768509,
        "style": "olive"
      }
    },
    {
      "type": "Feature",
      "id": "olive-112",
      "geometry": {
        "type": "Point",
        "coordinates": [
          -7.520449485001775,
          41.29338786685639
        ]
      },
      "properties": {
        "type": "Oliveira Centenária Duriense (Olea)",
        "species": "Olea europaea",
        "height": 6.059781196649093,
        "width": 6.031113358133399,
        "style": "olive"
      }
    },
    {
      "type": "Feature",
      "id": "olive-113",
      "geometry": {
        "type": "Point",
        "coordinates": [
          -7.518218289466066,
          41.29325893434327
        ]
      },
      "properties": {
        "type": "Oliveira Centenária Duriense (Olea)",
        "species": "Olea europaea",
        "height": 6.106012361892391,
        "width": 5.39431449496019,
        "style": "olive"
      }
    },
    {
      "type": "Feature",
      "id": "olive-114",
      "geometry": {
        "type": "Point",
        "coordinates": [
          -7.51703484759044,
          41.293339607159126
        ]
      },
      "properties": {
        "type": "Oliveira Centenária Duriense (Olea)",
        "species": "Olea europaea",
        "height": 6.843728608694434,
        "width": 5.586312771427908,
        "style": "olive"
      }
    },
    {
      "type": "Feature",
      "id": "olive-115",
      "geometry": {
        "type": "Point",
        "coordinates": [
          -7.515963745090809,
          41.29337948546888
        ]
      },
      "properties": {
        "type": "Oliveira Centenária Duriense (Olea)",
        "species": "Olea europaea",
        "height": 6.619076003343647,
        "width": 4.809828758024874,
        "style": "olive"
      }
    },
    {
      "type": "Feature",
      "id": "olive-116",
      "geometry": {
        "type": "Point",
        "coordinates": [
          -7.514810858596324,
          41.293359802616244
        ]
      },
      "properties": {
        "type": "Oliveira Centenária Duriense (Olea)",
        "species": "Olea europaea",
        "height": 6.462557958550332,
        "width": 6.212681524106976,
        "style": "olive"
      }
    },
    {
      "type": "Feature",
      "id": "olive-117",
      "geometry": {
        "type": "Point",
        "coordinates": [
          -7.530309335184287,
          41.29410066858508
        ]
      },
      "properties": {
        "type": "Oliveira Centenária Duriense (Olea)",
        "species": "Olea europaea",
        "height": 6.602947814565006,
        "width": 5.26763026453896,
        "style": "olive"
      }
    },
    {
      "type": "Feature",
      "id": "olive-118",
      "geometry": {
        "type": "Point",
        "coordinates": [
          -7.528096330185228,
          41.294215689237255
        ]
      },
      "properties": {
        "type": "Oliveira Centenária Duriense (Olea)",
        "species": "Olea europaea",
        "height": 6.552347429892186,
        "width": 6.236845367219784,
        "style": "olive"
      }
    },
    {
      "type": "Feature",
      "id": "olive-119",
      "geometry": {
        "type": "Point",
        "coordinates": [
          -7.526964164810866,
          41.29411857492007
        ]
      },
      "properties": {
        "type": "Oliveira Centenária Duriense (Olea)",
        "species": "Olea europaea",
        "height": 6.894005599859203,
        "width": 5.910746898203996,
        "style": "olive"
      }
    },
    {
      "type": "Feature",
      "id": "olive-120",
      "geometry": {
        "type": "Point",
        "coordinates": [
          -7.524819840137896,
          41.294134375137695
        ]
      },
      "properties": {
        "type": "Oliveira Centenária Duriense (Olea)",
        "species": "Olea europaea",
        "height": 5.584953102219092,
        "width": 5.988681651126301,
        "style": "olive"
      }
    },
    {
      "type": "Feature",
      "id": "olive-121",
      "geometry": {
        "type": "Point",
        "coordinates": [
          -7.522518413453193,
          41.29412393685688
        ]
      },
      "properties": {
        "type": "Oliveira Centenária Duriense (Olea)",
        "species": "Olea europaea",
        "height": 6.688064916517061,
        "width": 5.338150258418789,
        "style": "olive"
      }
    },
    {
      "type": "Feature",
      "id": "olive-122",
      "geometry": {
        "type": "Point",
        "coordinates": [
          -7.521562555220015,
          41.29427085682337
        ]
      },
      "properties": {
        "type": "Oliveira Centenária Duriense (Olea)",
        "species": "Olea europaea",
        "height": 6.814184727447286,
        "width": 5.791535315719291,
        "style": "olive"
      }
    },
    {
      "type": "Feature",
      "id": "olive-123",
      "geometry": {
        "type": "Point",
        "coordinates": [
          -7.52046980645542,
          41.29418214279448
        ]
      },
      "properties": {
        "type": "Oliveira Centenária Duriense (Olea)",
        "species": "Olea europaea",
        "height": 6.421613143770179,
        "width": 5.207443786902539,
        "style": "olive"
      }
    },
    {
      "type": "Feature",
      "id": "olive-124",
      "geometry": {
        "type": "Point",
        "coordinates": [
          -7.519281419266908,
          41.294266829102874
        ]
      },
      "properties": {
        "type": "Oliveira Centenária Duriense (Olea)",
        "species": "Olea europaea",
        "height": 5.515421220991323,
        "width": 4.9460351301156855,
        "style": "olive"
      }
    },
    {
      "type": "Feature",
      "id": "olive-125",
      "geometry": {
        "type": "Point",
        "coordinates": [
          -7.517120609927054,
          41.294146853462166
        ]
      },
      "properties": {
        "type": "Oliveira Centenária Duriense (Olea)",
        "species": "Olea europaea",
        "height": 6.825119483795277,
        "width": 5.519057673605063,
        "style": "olive"
      }
    },
    {
      "type": "Feature",
      "id": "olive-126",
      "geometry": {
        "type": "Point",
        "coordinates": [
          -7.516076303510627,
          41.29423193339499
        ]
      },
      "properties": {
        "type": "Oliveira Centenária Duriense (Olea)",
        "species": "Olea europaea",
        "height": 5.899581873941599,
        "width": 4.870551116806488,
        "style": "olive"
      }
    },
    {
      "type": "Feature",
      "id": "olive-127",
      "geometry": {
        "type": "Point",
        "coordinates": [
          -7.512736720991527,
          41.294273256065175
        ]
      },
      "properties": {
        "type": "Oliveira Centenária Duriense (Olea)",
        "species": "Olea europaea",
        "height": 6.63578675476035,
        "width": 5.683453852992323,
        "style": "olive"
      }
    },
    {
      "type": "Feature",
      "id": "olive-128",
      "geometry": {
        "type": "Point",
        "coordinates": [
          -7.526943855182502,
          41.29519133646911
        ]
      },
      "properties": {
        "type": "Oliveira Centenária Duriense (Olea)",
        "species": "Olea europaea",
        "height": 6.065018475967528,
        "width": 5.36205956117436,
        "style": "olive"
      }
    },
    {
      "type": "Feature",
      "id": "olive-129",
      "geometry": {
        "type": "Point",
        "coordinates": [
          -7.524881803902198,
          41.295152672369944
        ]
      },
      "properties": {
        "type": "Oliveira Centenária Duriense (Olea)",
        "species": "Olea europaea",
        "height": 5.931935944968187,
        "width": 5.21248516264607,
        "style": "olive"
      }
    },
    {
      "type": "Feature",
      "id": "olive-130",
      "geometry": {
        "type": "Point",
        "coordinates": [
          -7.523629801131649,
          41.295008546052756
        ]
      },
      "properties": {
        "type": "Oliveira Centenária Duriense (Olea)",
        "species": "Olea europaea",
        "height": 6.587427134274617,
        "width": 5.81629680905935,
        "style": "olive"
      }
    },
    {
      "type": "Feature",
      "id": "olive-131",
      "geometry": {
        "type": "Point",
        "coordinates": [
          -7.520342764587617,
          41.29515214231266
        ]
      },
      "properties": {
        "type": "Oliveira Centenária Duriense (Olea)",
        "species": "Olea europaea",
        "height": 5.401954050504536,
        "width": 5.029352465042034,
        "style": "olive"
      }
    },
    {
      "type": "Feature",
      "id": "olive-132",
      "geometry": {
        "type": "Point",
        "coordinates": [
          -7.519217734564531,
          41.29513987221096
        ]
      },
      "properties": {
        "type": "Oliveira Centenária Duriense (Olea)",
        "species": "Olea europaea",
        "height": 6.577405438444313,
        "width": 4.812100546196396,
        "style": "olive"
      }
    },
    {
      "type": "Feature",
      "id": "olive-133",
      "geometry": {
        "type": "Point",
        "coordinates": [
          -7.518108432642649,
          41.29517968086322
        ]
      },
      "properties": {
        "type": "Oliveira Centenária Duriense (Olea)",
        "species": "Olea europaea",
        "height": 5.220529213846567,
        "width": 6.191988713044597,
        "style": "olive"
      }
    },
    {
      "type": "Feature",
      "id": "olive-134",
      "geometry": {
        "type": "Point",
        "coordinates": [
          -7.517142422970478,
          41.29515180940655
        ]
      },
      "properties": {
        "type": "Oliveira Centenária Duriense (Olea)",
        "species": "Olea europaea",
        "height": 6.2783802189528375,
        "width": 5.9215448562427415,
        "style": "olive"
      }
    },
    {
      "type": "Feature",
      "id": "olive-135",
      "geometry": {
        "type": "Point",
        "coordinates": [
          -7.516057267725911,
          41.295071123002735
        ]
      },
      "properties": {
        "type": "Oliveira Centenária Duriense (Olea)",
        "species": "Olea europaea",
        "height": 6.714327515855508,
        "width": 5.45696607293808,
        "style": "olive"
      }
    },
    {
      "type": "Feature",
      "id": "olive-136",
      "geometry": {
        "type": "Point",
        "coordinates": [
          -7.513812548630505,
          41.29513042721373
        ]
      },
      "properties": {
        "type": "Oliveira Centenária Duriense (Olea)",
        "species": "Olea europaea",
        "height": 5.35987679639028,
        "width": 5.785484507973689,
        "style": "olive"
      }
    },
    {
      "type": "Feature",
      "id": "olive-137",
      "geometry": {
        "type": "Point",
        "coordinates": [
          -7.529299806193335,
          41.296061201654055
        ]
      },
      "properties": {
        "type": "Oliveira Centenária Duriense (Olea)",
        "species": "Olea europaea",
        "height": 5.541391133334721,
        "width": 6.172481856418542,
        "style": "olive"
      }
    },
    {
      "type": "Feature",
      "id": "olive-138",
      "geometry": {
        "type": "Point",
        "coordinates": [
          -7.528053457387395,
          41.29597274327205
        ]
      },
      "properties": {
        "type": "Oliveira Centenária Duriense (Olea)",
        "species": "Olea europaea",
        "height": 6.373940498037004,
        "width": 5.7060488695590035,
        "style": "olive"
      }
    },
    {
      "type": "Feature",
      "id": "olive-139",
      "geometry": {
        "type": "Point",
        "coordinates": [
          -7.527036349119861,
          41.2959336215886
        ]
      },
      "properties": {
        "type": "Oliveira Centenária Duriense (Olea)",
        "species": "Olea europaea",
        "height": 5.586755507531318,
        "width": 5.549578911055905,
        "style": "olive"
      }
    },
    {
      "type": "Feature",
      "id": "olive-140",
      "geometry": {
        "type": "Point",
        "coordinates": [
          -7.525976563725111,
          41.29604241228098
        ]
      },
      "properties": {
        "type": "Oliveira Centenária Duriense (Olea)",
        "species": "Olea europaea",
        "height": 5.678611860880632,
        "width": 5.677358075487048,
        "style": "olive"
      }
    },
    {
      "type": "Feature",
      "id": "olive-141",
      "geometry": {
        "type": "Point",
        "coordinates": [
          -7.524746702339778,
          41.29595811983836
        ]
      },
      "properties": {
        "type": "Oliveira Centenária Duriense (Olea)",
        "species": "Olea europaea",
        "height": 5.242949147012655,
        "width": 4.990471151821448,
        "style": "olive"
      }
    },
    {
      "type": "Feature",
      "id": "olive-142",
      "geometry": {
        "type": "Point",
        "coordinates": [
          -7.523610138855128,
          41.29593996706712
        ]
      },
      "properties": {
        "type": "Oliveira Centenária Duriense (Olea)",
        "species": "Olea europaea",
        "height": 5.27396154701287,
        "width": 6.266520133275932,
        "style": "olive"
      }
    },
    {
      "type": "Feature",
      "id": "olive-143",
      "geometry": {
        "type": "Point",
        "coordinates": [
          -7.52159320523893,
          41.296087217104215
        ]
      },
      "properties": {
        "type": "Oliveira Centenária Duriense (Olea)",
        "species": "Olea europaea",
        "height": 6.426890959292388,
        "width": 5.391242329794122,
        "style": "olive"
      }
    },
    {
      "type": "Feature",
      "id": "olive-144",
      "geometry": {
        "type": "Point",
        "coordinates": [
          -7.520427998862878,
          41.29609341115167
        ]
      },
      "properties": {
        "type": "Oliveira Centenária Duriense (Olea)",
        "species": "Olea europaea",
        "height": 6.975333406580111,
        "width": 5.998006228634873,
        "style": "olive"
      }
    },
    {
      "type": "Feature",
      "id": "olive-145",
      "geometry": {
        "type": "Point",
        "coordinates": [
          -7.519336041743996,
          41.29605844111863
        ]
      },
      "properties": {
        "type": "Oliveira Centenária Duriense (Olea)",
        "species": "Olea europaea",
        "height": 5.5556704988432895,
        "width": 6.0863425114811545,
        "style": "olive"
      }
    },
    {
      "type": "Feature",
      "id": "olive-146",
      "geometry": {
        "type": "Point",
        "coordinates": [
          -7.517107725824413,
          41.29595977961972
        ]
      },
      "properties": {
        "type": "Oliveira Centenária Duriense (Olea)",
        "species": "Olea europaea",
        "height": 6.181639938909459,
        "width": 4.954827995173889,
        "style": "olive"
      }
    },
    {
      "type": "Feature",
      "id": "olive-147",
      "geometry": {
        "type": "Point",
        "coordinates": [
          -7.5160166886159985,
          41.29597384855215
        ]
      },
      "properties": {
        "type": "Oliveira Centenária Duriense (Olea)",
        "species": "Olea europaea",
        "height": 6.304574583765415,
        "width": 5.267613945103153,
        "style": "olive"
      }
    },
    {
      "type": "Feature",
      "id": "olive-148",
      "geometry": {
        "type": "Point",
        "coordinates": [
          -7.514947448765216,
          41.29603501352131
        ]
      },
      "properties": {
        "type": "Oliveira Centenária Duriense (Olea)",
        "species": "Olea europaea",
        "height": 5.429028851446152,
        "width": 5.809143020901123,
        "style": "olive"
      }
    },
    {
      "type": "Feature",
      "id": "olive-149",
      "geometry": {
        "type": "Point",
        "coordinates": [
          -7.51376960866403,
          41.296008836652334
        ]
      },
      "properties": {
        "type": "Oliveira Centenária Duriense (Olea)",
        "species": "Olea europaea",
        "height": 5.9333668579369965,
        "width": 5.835092084235776,
        "style": "olive"
      }
    },
    {
      "type": "Feature",
      "id": "olive-150",
      "geometry": {
        "type": "Point",
        "coordinates": [
          -7.528126608254343,
          41.29695971772682
        ]
      },
      "properties": {
        "type": "Oliveira Centenária Duriense (Olea)",
        "species": "Olea europaea",
        "height": 5.321530140106825,
        "width": 5.465540499500007,
        "style": "olive"
      }
    },
    {
      "type": "Feature",
      "id": "olive-151",
      "geometry": {
        "type": "Point",
        "coordinates": [
          -7.527010241951138,
          41.29682618351993
        ]
      },
      "properties": {
        "type": "Oliveira Centenária Duriense (Olea)",
        "species": "Olea europaea",
        "height": 5.5664402637091035,
        "width": 6.041109892620119,
        "style": "olive"
      }
    },
    {
      "type": "Feature",
      "id": "olive-152",
      "geometry": {
        "type": "Point",
        "coordinates": [
          -7.525834076285977,
          41.296834527110946
        ]
      },
      "properties": {
        "type": "Oliveira Centenária Duriense (Olea)",
        "species": "Olea europaea",
        "height": 5.566305594011274,
        "width": 5.798196832464708,
        "style": "olive"
      }
    },
    {
      "type": "Feature",
      "id": "olive-153",
      "geometry": {
        "type": "Point",
        "coordinates": [
          -7.518298786592816,
          41.296977560482325
        ]
      },
      "properties": {
        "type": "Oliveira Centenária Duriense (Olea)",
        "species": "Olea europaea",
        "height": 5.5579456881819524,
        "width": 4.838742222339225,
        "style": "olive"
      }
    },
    {
      "type": "Feature",
      "id": "olive-154",
      "geometry": {
        "type": "Point",
        "coordinates": [
          -7.517120590707676,
          41.296861133181764
        ]
      },
      "properties": {
        "type": "Oliveira Centenária Duriense (Olea)",
        "species": "Olea europaea",
        "height": 5.8892224215820725,
        "width": 5.130531701293137,
        "style": "olive"
      }
    },
    {
      "type": "Feature",
      "id": "olive-155",
      "geometry": {
        "type": "Point",
        "coordinates": [
          -7.515947125872991,
          41.29687330244519
        ]
      },
      "properties": {
        "type": "Oliveira Centenária Duriense (Olea)",
        "species": "Olea europaea",
        "height": 6.292621449935496,
        "width": 6.180960828209553,
        "style": "olive"
      }
    },
    {
      "type": "Feature",
      "id": "olive-156",
      "geometry": {
        "type": "Point",
        "coordinates": [
          -7.514872100754533,
          41.29697815721959
        ]
      },
      "properties": {
        "type": "Oliveira Centenária Duriense (Olea)",
        "species": "Olea europaea",
        "height": 5.431314864953786,
        "width": 5.04485737080887,
        "style": "olive"
      }
    },
    {
      "type": "Feature",
      "id": "olive-157",
      "geometry": {
        "type": "Point",
        "coordinates": [
          -7.527010897847216,
          41.2977943968165
        ]
      },
      "properties": {
        "type": "Oliveira Centenária Duriense (Olea)",
        "species": "Olea europaea",
        "height": 5.790578082405908,
        "width": 5.126458469688746,
        "style": "olive"
      }
    },
    {
      "type": "Feature",
      "id": "olive-158",
      "geometry": {
        "type": "Point",
        "coordinates": [
          -7.525925302668791,
          41.297723490698516
        ]
      },
      "properties": {
        "type": "Oliveira Centenária Duriense (Olea)",
        "species": "Olea europaea",
        "height": 5.399276621332073,
        "width": 5.154808419436252,
        "style": "olive"
      }
    },
    {
      "type": "Feature",
      "id": "olive-159",
      "geometry": {
        "type": "Point",
        "coordinates": [
          -7.52472228348477,
          41.297793396382765
        ]
      },
      "properties": {
        "type": "Oliveira Centenária Duriense (Olea)",
        "species": "Olea europaea",
        "height": 6.798425440929719,
        "width": 4.815845598609009,
        "style": "olive"
      }
    },
    {
      "type": "Feature",
      "id": "olive-160",
      "geometry": {
        "type": "Point",
        "coordinates": [
          -7.523682048615071,
          41.29778167093282
        ]
      },
      "properties": {
        "type": "Oliveira Centenária Duriense (Olea)",
        "species": "Olea europaea",
        "height": 6.36364942076196,
        "width": 5.833633324266742,
        "style": "olive"
      }
    },
    {
      "type": "Feature",
      "id": "olive-161",
      "geometry": {
        "type": "Point",
        "coordinates": [
          -7.521451309104617,
          41.29782822027475
        ]
      },
      "properties": {
        "type": "Oliveira Centenária Duriense (Olea)",
        "species": "Olea europaea",
        "height": 5.512642405188358,
        "width": 6.196896687518902,
        "style": "olive"
      }
    },
    {
      "type": "Feature",
      "id": "olive-162",
      "geometry": {
        "type": "Point",
        "coordinates": [
          -7.520380764608099,
          41.29776281124886
        ]
      },
      "properties": {
        "type": "Oliveira Centenária Duriense (Olea)",
        "species": "Olea europaea",
        "height": 6.326389042942983,
        "width": 5.994721153445245,
        "style": "olive"
      }
    },
    {
      "type": "Feature",
      "id": "olive-163",
      "geometry": {
        "type": "Point",
        "coordinates": [
          -7.519245241735649,
          41.297894988873566
        ]
      },
      "properties": {
        "type": "Oliveira Centenária Duriense (Olea)",
        "species": "Olea europaea",
        "height": 6.650759208252288,
        "width": 5.488796369688935,
        "style": "olive"
      }
    },
    {
      "type": "Feature",
      "id": "olive-164",
      "geometry": {
        "type": "Point",
        "coordinates": [
          -7.517192403810837,
          41.29777274028114
        ]
      },
      "properties": {
        "type": "Oliveira Centenária Duriense (Olea)",
        "species": "Olea europaea",
        "height": 6.67628791772228,
        "width": 6.100428632937604,
        "style": "olive"
      }
    },
    {
      "type": "Feature",
      "id": "olive-165",
      "geometry": {
        "type": "Point",
        "coordinates": [
          -7.516033332059134,
          41.297764081182045
        ]
      },
      "properties": {
        "type": "Oliveira Centenária Duriense (Olea)",
        "species": "Olea europaea",
        "height": 5.209964948148061,
        "width": 5.781925419301928,
        "style": "olive"
      }
    },
    {
      "type": "Feature",
      "id": "olive-166",
      "geometry": {
        "type": "Point",
        "coordinates": [
          -7.525877075327805,
          41.298702506286986
        ]
      },
      "properties": {
        "type": "Oliveira Centenária Duriense (Olea)",
        "species": "Olea europaea",
        "height": 5.477720689962373,
        "width": 5.900258411328066,
        "style": "olive"
      }
    },
    {
      "type": "Feature",
      "id": "olive-167",
      "geometry": {
        "type": "Point",
        "coordinates": [
          -7.523715617018554,
          41.29878111230028
        ]
      },
      "properties": {
        "type": "Oliveira Centenária Duriense (Olea)",
        "species": "Olea europaea",
        "height": 5.403726132256121,
        "width": 5.96579598983763,
        "style": "olive"
      }
    },
    {
      "type": "Feature",
      "id": "olive-168",
      "geometry": {
        "type": "Point",
        "coordinates": [
          -7.520408985759769,
          41.29871155818609
        ]
      },
      "properties": {
        "type": "Oliveira Centenária Duriense (Olea)",
        "species": "Olea europaea",
        "height": 5.987747523250555,
        "width": 5.21590605854545,
        "style": "olive"
      }
    },
    {
      "type": "Feature",
      "id": "olive-169",
      "geometry": {
        "type": "Point",
        "coordinates": [
          -7.518206735360504,
          41.29876340878693
        ]
      },
      "properties": {
        "type": "Oliveira Centenária Duriense (Olea)",
        "species": "Olea europaea",
        "height": 5.279150416451028,
        "width": 4.853323291164033,
        "style": "olive"
      }
    },
    {
      "type": "Feature",
      "id": "olive-170",
      "geometry": {
        "type": "Point",
        "coordinates": [
          -7.517051966713232,
          41.298629070440406
        ]
      },
      "properties": {
        "type": "Oliveira Centenária Duriense (Olea)",
        "species": "Olea europaea",
        "height": 6.124486230768463,
        "width": 6.292647663279484,
        "style": "olive"
      }
    },
    {
      "type": "Feature",
      "id": "olive-171",
      "geometry": {
        "type": "Point",
        "coordinates": [
          -7.521593139979966,
          41.29953833873107
        ]
      },
      "properties": {
        "type": "Oliveira Centenária Duriense (Olea)",
        "species": "Olea europaea",
        "height": 5.676486379896726,
        "width": 5.2236470484001485,
        "style": "olive"
      }
    }
  ]
}